code,district,short,parent_code,pinyin,parent_id
110000,北京,京,0,beijing,null
110100,北京市,,110000,beijingshi,1
110101,东城区,,110100,dongchengqu,2
110102,西城区,,110100,xichengqu,2
110103,崇文区,,110100,chongwenqu,2
110104,宣武区,,110100,xuanwuqu,2
110105,朝阳区,,110100,chaoyangqu,2
110106,丰台区,,110100,fengtaiqu,2
110107,石景山区,,110100,shijingshanqu,2
110108,海淀区,,110100,haidianqu,2
110109,门头沟区,,110100,mentougouqu,2
110111,房山区,,110100,fangshanqu,2
110112,通州区,,110100,tongzhouqu,2
110113,顺义区,,110100,shunyiqu,2
110114,昌平区,,110100,changpingqu,2
110115,大兴区,,110100,daxingqu,2
110116,怀柔区,,110100,huairouqu,2
110117,平谷区,,110100,pingguqu,2
110228,密云县,,110100,miyunxian,2
110229,延庆县,,110100,yanqingxian,2
110230,其它区,,110100,qitaqu,2
120000,天津,津,0,tianjin,null
120100,天津市,,120000,tianjinshi,22
120101,和平区,,120100,hepingqu,23
120102,河东区,,120100,hedongqu,23
120103,河西区,,120100,hexiqu,23
120104,南开区,,120100,nankaiqu,23
120105,河北区,,120100,hebeiqu,23
120106,红桥区,,120100,hongqiaoqu,23
120107,塘沽区,,120100,tangguqu,23
120108,汉沽区,,120100,hanguqu,23
120109,大港区,,120100,dagangqu,23
120110,东丽区,,120100,dongliqu,23
120111,西青区,,120100,xiqingqu,23
120112,津南区,,120100,jinnanqu,23
120113,北辰区,,120100,beichenqu,23
120114,武清区,,120100,wuqingqu,23
120115,宝坻区,,120100,baoqu,23
120116,滨海新区,,120100,binhaixinqu,23
120221,宁河县,,120100,ninghexian,23
120223,静海县,,120100,jinghaixian,23
120225,蓟县,,120100,jixian,23
120226,其它区,,120100,qitaqu,23
130000,河北省,冀,0,hebeisheng,null
130100,石家庄市,,130000,shijiazhuangshi,44
130102,长安区,,130100,changanqu,45
130103,桥东区,,130100,qiaodongqu,45
130104,桥西区,,130100,qiaoxiqu,45
130105,新华区,,130100,xinhuaqu,45
130107,井陉矿区,,130100,jingkuangqu,45
130108,裕华区,,130100,yuhuaqu,45
130121,井陉县,,130100,jingxian,45
130123,正定县,,130100,zhengdingxian,45
130124,栾城县,,130100,chengxian,45
130125,行唐县,,130100,xingtangxian,45
130126,灵寿县,,130100,lingshouxian,45
130127,高邑县,,130100,gaoyixian,45
130128,深泽县,,130100,shenzexian,45
130129,赞皇县,,130100,zanhuangxian,45
130130,无极县,,130100,wujixian,45
130131,平山县,,130100,pingshanxian,45
130132,元氏县,,130100,yuanshixian,45
130133,赵县,,130100,zhaoxian,45
130181,辛集市,,130100,xinjishi,45
130182,藁城市,,130100,chengshi,45
130183,晋州市,,130100,jinzhoushi,45
130184,新乐市,,130100,xinleshi,45
130185,鹿泉市,,130100,luquanshi,45
130186,其它区,,130100,qitaqu,45
130200,唐山市,,130000,tangshanshi,44
130202,路南区,,130200,lunanqu,70
130203,路北区,,130200,lubeiqu,70
130204,古冶区,,130200,guyequ,70
130205,开平区,,130200,kaipingqu,70
130207,丰南区,,130200,fengnanqu,70
130208,丰润区,,130200,fengrunqu,70
130223,滦县,,130200,luanxian,70
130224,滦南县,,130200,luannanxian,70
130225,乐亭县,,130200,letingxian,70
130227,迁西县,,130200,qianxixian,70
130229,玉田县,,130200,yutianxian,70
130230,唐海县,,130200,tanghaixian,70
130281,遵化市,,130200,zunhuashi,70
130283,迁安市,,130200,qiananshi,70
130284,其它区,,130200,qitaqu,70
130300,秦皇岛市,,130000,qinhuangdaoshi,44
130302,海港区,,130300,haigangqu,86
130303,山海关区,,130300,shanhaiguanqu,86
130304,北戴河区,,130300,beidaihequ,86
130321,青龙满族自治县,,130300,qinglongmanzuzizhixian,86
130322,昌黎县,,130300,changlixian,86
130323,抚宁县,,130300,funingxian,86
130324,卢龙县,,130300,lulongxian,86
130398,其它区,,130300,qitaqu,86
130399,经济技术开发区,,130300,jingjijishukaifaqu,86
130400,邯郸市,,130000,handanshi,44
130402,邯山区,,130400,hanshanqu,96
130403,丛台区,,130400,congtaiqu,96
130404,复兴区,,130400,fuxingqu,96
130406,峰峰矿区,,130400,fengfengkuangqu,96
130421,邯郸县,,130400,handanxian,96
130423,临漳县,,130400,linzhangxian,96
130424,成安县,,130400,chenganxian,96
130425,大名县,,130400,damingxian,96
130426,涉县,,130400,shexian,96
130427,磁县,,130400,cixian,96
130428,肥乡县,,130400,feixiangxian,96
130429,永年县,,130400,yongnianxian,96
130430,邱县,,130400,qiuxian,96
130431,鸡泽县,,130400,jizexian,96
130432,广平县,,130400,guangpingxian,96
130433,馆陶县,,130400,guantaoxian,96
130434,魏县,,130400,weixian,96
130435,曲周县,,130400,quzhouxian,96
130481,武安市,,130400,wuanshi,96
130482,其它区,,130400,qitaqu,96
130500,邢台市,,130000,xingtaishi,44
130502,桥东区,,130500,qiaodongqu,117
130503,桥西区,,130500,qiaoxiqu,117
130521,邢台县,,130500,xingtaixian,117
130522,临城县,,130500,linchengxian,117
130523,内丘县,,130500,neiqiuxian,117
130524,柏乡县,,130500,baixiangxian,117
130525,隆尧县,,130500,longyaoxian,117
130526,任县,,130500,renxian,117
130527,南和县,,130500,nanhexian,117
130528,宁晋县,,130500,ningjinxian,117
130529,巨鹿县,,130500,juluxian,117
130530,新河县,,130500,xinhexian,117
130531,广宗县,,130500,guangzongxian,117
130532,平乡县,,130500,pingxiangxian,117
130533,威县,,130500,weixian,117
130534,清河县,,130500,qinghexian,117
130535,临西县,,130500,linxixian,117
130581,南宫市,,130500,nangongshi,117
130582,沙河市,,130500,shaheshi,117
130583,其它区,,130500,qitaqu,117
130600,保定市,,130000,baodingshi,44
130602,新市区,,130600,xinshiqu,138
130603,北市区,,130600,beishiqu,138
130604,南市区,,130600,nanshiqu,138
130621,满城县,,130600,manchengxian,138
130622,清苑县,,130600,qingyuanxian,138
130623,涞水县,,130600,shuixian,138
130624,阜平县,,130600,fupingxian,138
130625,徐水县,,130600,xushuixian,138
130626,定兴县,,130600,dingxingxian,138
130627,唐县,,130600,tangxian,138
130628,高阳县,,130600,gaoyangxian,138
130629,容城县,,130600,rongchengxian,138
130630,涞源县,,130600,yuanxian,138
130631,望都县,,130600,wangduxian,138
130632,安新县,,130600,anxinxian,138
130633,易县,,130600,yixian,138
130634,曲阳县,,130600,quyangxian,138
130635,蠡县,,130600,xian,138
130636,顺平县,,130600,shunpingxian,138
130637,博野县,,130600,boyexian,138
130638,雄县,,130600,xiongxian,138
130681,涿州市,,130600,zhoushi,138
130682,定州市,,130600,dingzhoushi,138
130683,安国市,,130600,anguoshi,138
130684,高碑店市,,130600,gaobeidianshi,138
130698,高开区,,130600,gaokaiqu,138
130699,其它区,,130600,qitaqu,138
130700,张家口市,,130000,zhangjiakoushi,44
130702,桥东区,,130700,qiaodongqu,166
130703,桥西区,,130700,qiaoxiqu,166
130705,宣化区,,130700,xuanhuaqu,166
130706,下花园区,,130700,xiahuayuanqu,166
130721,宣化县,,130700,xuanhuaxian,166
130722,张北县,,130700,zhangbeixian,166
130723,康保县,,130700,kangbaoxian,166
130724,沽源县,,130700,guyuanxian,166
130725,尚义县,,130700,shangyixian,166
130726,蔚县,,130700,weixian,166
130727,阳原县,,130700,yangyuanxian,166
130728,怀安县,,130700,huaianxian,166
130729,万全县,,130700,wanquanxian,166
130730,怀来县,,130700,huailaixian,166
130731,涿鹿县,,130700,luxian,166
130732,赤城县,,130700,chichengxian,166
130733,崇礼县,,130700,chonglixian,166
130734,其它区,,130700,qitaqu,166
130800,承德市,,130000,chengdeshi,44
130802,双桥区,,130800,shuangqiaoqu,185
130803,双滦区,,130800,shuangluanqu,185
130804,鹰手营子矿区,,130800,yingshouyingzikuangqu,185
130821,承德县,,130800,chengdexian,185
130822,兴隆县,,130800,xinglongxian,185
130823,平泉县,,130800,pingquanxian,185
130824,滦平县,,130800,luanpingxian,185
130825,隆化县,,130800,longhuaxian,185
130826,丰宁满族自治县,,130800,fengningmanzuzizhixian,185
130827,宽城满族自治县,,130800,kuanchengmanzuzizhixian,185
130828,围场满族蒙古族自治县,,130800,weichangmanzumengguzuzizhixian,185
130829,其它区,,130800,qitaqu,185
130900,沧州市,,130000,cangzhoushi,44
130902,新华区,,130900,xinhuaqu,198
130903,运河区,,130900,yunhequ,198
130921,沧县,,130900,cangxian,198
130922,青县,,130900,qingxian,198
130923,东光县,,130900,dongguangxian,198
130924,海兴县,,130900,haixingxian,198
130925,盐山县,,130900,yanshanxian,198
130926,肃宁县,,130900,suningxian,198
130927,南皮县,,130900,nanpixian,198
130928,吴桥县,,130900,wuqiaoxian,198
130929,献县,,130900,xianxian,198
130930,孟村回族自治县,,130900,mengcunhuizuzizhixian,198
130981,泊头市,,130900,botoushi,198
130982,任丘市,,130900,renqiushi,198
130983,黄骅市,,130900,huangshi,198
130984,河间市,,130900,hejianshi,198
130985,其它区,,130900,qitaqu,198
131000,廊坊市,,130000,langfangshi,44
131002,安次区,,131000,anciqu,216
131003,广阳区,,131000,guangyangqu,216
131022,固安县,,131000,guanxian,216
131023,永清县,,131000,yongqingxian,216
131024,香河县,,131000,xianghexian,216
131025,大城县,,131000,dachengxian,216
131026,文安县,,131000,wenanxian,216
131028,大厂回族自治县,,131000,dachanghuizuzizhixian,216
131051,开发区,,131000,kaifaqu,216
131052,燕郊经济技术开发区,,131000,yanjiaojingjijishukaifaqu,216
131081,霸州市,,131000,bazhoushi,216
131082,三河市,,131000,sanheshi,216
131083,其它区,,131000,qitaqu,216
131100,衡水市,,130000,hengshuishi,44
131102,桃城区,,131100,taochengqu,230
131121,枣强县,,131100,zaoqiangxian,230
131122,武邑县,,131100,wuyixian,230
131123,武强县,,131100,wuqiangxian,230
131124,饶阳县,,131100,raoyangxian,230
131125,安平县,,131100,anpingxian,230
131126,故城县,,131100,guchengxian,230
131127,景县,,131100,jingxian,230
131128,阜城县,,131100,fuchengxian,230
131181,冀州市,,131100,jizhoushi,230
131182,深州市,,131100,shenzhoushi,230
131183,其它区,,131100,qitaqu,230
140000,山西省,晋,0,shanxisheng,null
140100,太原市,,140000,taiyuanshi,243
140105,小店区,,140100,xiaodianqu,244
140106,迎泽区,,140100,yingzequ,244
140107,杏花岭区,,140100,xinghualingqu,244
140108,尖草坪区,,140100,jiancaopingqu,244
140109,万柏林区,,140100,wanbailinqu,244
140110,晋源区,,140100,jinyuanqu,244
140121,清徐县,,140100,qingxuxian,244
140122,阳曲县,,140100,yangquxian,244
140123,娄烦县,,140100,loufanxian,244
140181,古交市,,140100,gujiaoshi,244
140182,其它区,,140100,qitaqu,244
140200,大同市,,140000,datongshi,243
140202,城区,,140200,chengqu,256
140203,矿区,,140200,kuangqu,256
140211,南郊区,,140200,nanjiaoqu,256
140212,新荣区,,140200,xinrongqu,256
140221,阳高县,,140200,yanggaoxian,256
140222,天镇县,,140200,tianzhenxian,256
140223,广灵县,,140200,guanglingxian,256
140224,灵丘县,,140200,lingqiuxian,256
140225,浑源县,,140200,hunyuanxian,256
140226,左云县,,140200,zuoyunxian,256
140227,大同县,,140200,datongxian,256
140228,其它区,,140200,qitaqu,256
140300,阳泉市,,140000,yangquanshi,243
140302,城区,,140300,chengqu,269
140303,矿区,,140300,kuangqu,269
140311,郊区,,140300,jiaoqu,269
140321,平定县,,140300,pingdingxian,269
140322,盂县,,140300,yuxian,269
140323,其它区,,140300,qitaqu,269
140400,长治市,,140000,changzhishi,243
140421,长治县,,140400,changzhixian,276
140423,襄垣县,,140400,xiangyuanxian,276
140424,屯留县,,140400,tunliuxian,276
140425,平顺县,,140400,pingshunxian,276
140426,黎城县,,140400,lichengxian,276
140427,壶关县,,140400,huguanxian,276
140428,长子县,,140400,changzixian,276
140429,武乡县,,140400,wuxiangxian,276
140430,沁县,,140400,qinxian,276
140431,沁源县,,140400,qinyuanxian,276
140481,潞城市,,140400,luchengshi,276
140482,城区,,140400,chengqu,276
140483,郊区,,140400,jiaoqu,276
140484,高新区,,140400,gaoxinqu,276
140485,其它区,,140400,qitaqu,276
140500,晋城市,,140000,jinchengshi,243
140502,城区,,140500,chengqu,292
140521,沁水县,,140500,qinshuixian,292
140522,阳城县,,140500,yangchengxian,292
140524,陵川县,,140500,lingchuanxian,292
140525,泽州县,,140500,zezhouxian,292
140581,高平市,,140500,gaopingshi,292
140582,其它区,,140500,qitaqu,292
140600,朔州市,,140000,shuozhoushi,243
140602,朔城区,,140600,shuochengqu,300
140603,平鲁区,,140600,pingluqu,300
140621,山阴县,,140600,shanyinxian,300
140622,应县,,140600,yingxian,300
140623,右玉县,,140600,youyuxian,300
140624,怀仁县,,140600,huairenxian,300
140625,其它区,,140600,qitaqu,300
140700,晋中市,,140000,jinzhongshi,243
140702,榆次区,,140700,yuciqu,308
140721,榆社县,,140700,yushexian,308
140722,左权县,,140700,zuoquanxian,308
140723,和顺县,,140700,heshunxian,308
140724,昔阳县,,140700,xiyangxian,308
140725,寿阳县,,140700,shouyangxian,308
140726,太谷县,,140700,taiguxian,308
140727,祁县,,140700,qixian,308
140728,平遥县,,140700,pingyaoxian,308
140729,灵石县,,140700,lingshixian,308
140781,介休市,,140700,jiexiushi,308
140782,其它区,,140700,qitaqu,308
140800,运城市,,140000,yunchengshi,243
140802,盐湖区,,140800,yanhuqu,321
140821,临猗县,,140800,linxian,321
140822,万荣县,,140800,wanrongxian,321
140823,闻喜县,,140800,wenxixian,321
140824,稷山县,,140800,shanxian,321
140825,新绛县,,140800,xinxian,321
140826,绛县,,140800,xian,321
140827,垣曲县,,140800,yuanquxian,321
140828,夏县,,140800,xiaxian,321
140829,平陆县,,140800,pingluxian,321
140830,芮城县,,140800,chengxian,321
140881,永济市,,140800,yongjishi,321
140882,河津市,,140800,hejinshi,321
140883,其它区,,140800,qitaqu,321
140900,忻州市,,140000,xinzhoushi,243
140902,忻府区,,140900,xinfuqu,336
140921,定襄县,,140900,dingxiangxian,336
140922,五台县,,140900,wutaixian,336
140923,代县,,140900,daixian,336
140924,繁峙县,,140900,fanzhixian,336
140925,宁武县,,140900,ningwuxian,336
140926,静乐县,,140900,jinglexian,336
140927,神池县,,140900,shenchixian,336
140928,五寨县,,140900,wuzhaixian,336
140929,岢岚县,,140900,xian,336
140930,河曲县,,140900,hequxian,336
140931,保德县,,140900,baodexian,336
140932,偏关县,,140900,pianguanxian,336
140981,原平市,,140900,yuanpingshi,336
140982,其它区,,140900,qitaqu,336
141000,临汾市,,140000,linfenshi,243
141002,尧都区,,141000,yaoduqu,352
141021,曲沃县,,141000,quwoxian,352
141022,翼城县,,141000,yichengxian,352
141023,襄汾县,,141000,xiangfenxian,352
141024,洪洞县,,141000,hongdongxian,352
141025,古县,,141000,guxian,352
141026,安泽县,,141000,anzexian,352
141027,浮山县,,141000,fushanxian,352
141028,吉县,,141000,jixian,352
141029,乡宁县,,141000,xiangningxian,352
141030,大宁县,,141000,daningxian,352
141031,隰县,,141000,xian,352
141032,永和县,,141000,yonghexian,352
141033,蒲县,,141000,puxian,352
141034,汾西县,,141000,fenxixian,352
141081,侯马市,,141000,houmashi,352
141082,霍州市,,141000,huozhoushi,352
141083,其它区,,141000,qitaqu,352
141100,吕梁市,,140000,lvliangshi,243
141102,离石区,,141100,lishiqu,371
141121,文水县,,141100,wenshuixian,371
141122,交城县,,141100,jiaochengxian,371
141123,兴县,,141100,xingxian,371
141124,临县,,141100,linxian,371
141125,柳林县,,141100,liulinxian,371
141126,石楼县,,141100,shilouxian,371
141127,岚县,,141100,xian,371
141128,方山县,,141100,fangshanxian,371
141129,中阳县,,141100,zhongyangxian,371
141130,交口县,,141100,jiaokouxian,371
141181,孝义市,,141100,xiaoyishi,371
141182,汾阳市,,141100,fenyangshi,371
141183,其它区,,141100,qitaqu,371
150000,内蒙古自治区,蒙,0,neimengguzizhiqu,null
150100,呼和浩特市,,150000,huhehaoteshi,386
150102,新城区,,150100,xinchengqu,387
150103,回民区,,150100,huiminqu,387
150104,玉泉区,,150100,yuquanqu,387
150105,赛罕区,,150100,saihanqu,387
150121,土默特左旗,,150100,tumotezuoqi,387
150122,托克托县,,150100,tuoketuoxian,387
150123,和林格尔县,,150100,helingeerxian,387
150124,清水河县,,150100,qingshuihexian,387
150125,武川县,,150100,wuchuanxian,387
150126,其它区,,150100,qitaqu,387
150200,包头市,,150000,baotoushi,386
150202,东河区,,150200,donghequ,398
150203,昆都仑区,,150200,kundulunqu,398
150204,青山区,,150200,qingshanqu,398
150205,石拐区,,150200,shiguaiqu,398
150206,白云矿区,,150200,baiyunkuangqu,398
150207,九原区,,150200,jiuyuanqu,398
150221,土默特右旗,,150200,tumoteyouqi,398
150222,固阳县,,150200,guyangxian,398
150223,达尔罕茂明安联合旗,,150200,daerhanmaominganlianheqi,398
150224,其它区,,150200,qitaqu,398
150300,乌海市,,150000,wuhaishi,386
150302,海勃湾区,,150300,haibowanqu,409
150303,海南区,,150300,hainanqu,409
150304,乌达区,,150300,wudaqu,409
150305,其它区,,150300,qitaqu,409
150400,赤峰市,,150000,chifengshi,386
150402,红山区,,150400,hongshanqu,414
150403,元宝山区,,150400,yuanbaoshanqu,414
150404,松山区,,150400,songshanqu,414
150421,阿鲁科尔沁旗,,150400,alukeerqinqi,414
150422,巴林左旗,,150400,balinzuoqi,414
150423,巴林右旗,,150400,balinyouqi,414
150424,林西县,,150400,linxixian,414
150425,克什克腾旗,,150400,keshiketengqi,414
150426,翁牛特旗,,150400,wengniuteqi,414
150428,喀喇沁旗,,150400,kalaqinqi,414
150429,宁城县,,150400,ningchengxian,414
150430,敖汉旗,,150400,aohanqi,414
150431,其它区,,150400,qitaqu,414
150500,通辽市,,150000,tongliaoshi,386
150502,科尔沁区,,150500,keerqinqu,428
150521,科尔沁左翼中旗,,150500,keerqinzuoyizhongqi,428
150522,科尔沁左翼后旗,,150500,keerqinzuoyihouqi,428
150523,开鲁县,,150500,kailuxian,428
150524,库伦旗,,150500,kulunqi,428
150525,奈曼旗,,150500,naimanqi,428
150526,扎鲁特旗,,150500,zhaluteqi,428
150581,霍林郭勒市,,150500,huolinguoleshi,428
150582,其它区,,150500,qitaqu,428
150600,鄂尔多斯市,,150000,eerduosishi,386
150602,东胜区,,150600,dongshengqu,438
150621,达拉特旗,,150600,dalateqi,438
150622,准格尔旗,,150600,zhungeerqi,438
150623,鄂托克前旗,,150600,etuokeqianqi,438
150624,鄂托克旗,,150600,etuokeqi,438
150625,杭锦旗,,150600,hangjinqi,438
150626,乌审旗,,150600,wushenqi,438
150627,伊金霍洛旗,,150600,yijinhuoluoqi,438
150628,其它区,,150600,qitaqu,438
150700,呼伦贝尔市,,150000,hulunbeiershi,386
150702,海拉尔区,,150700,hailaerqu,448
150721,阿荣旗,,150700,arongqi,448
150722,莫力达瓦达斡尔族自治旗,,150700,molidawadawoerzuzizhiqi,448
150723,鄂伦春自治旗,,150700,elunchunzizhiqi,448
150724,鄂温克族自治旗,,150700,ewenkezuzizhiqi,448
150725,陈巴尔虎旗,,150700,chenbaerhuqi,448
150726,新巴尔虎左旗,,150700,xinbaerhuzuoqi,448
150727,新巴尔虎右旗,,150700,xinbaerhuyouqi,448
150781,满洲里市,,150700,manzhoulishi,448
150782,牙克石市,,150700,yakeshishi,448
150783,扎兰屯市,,150700,zhalantunshi,448
150784,额尔古纳市,,150700,eergunashi,448
150785,根河市,,150700,genheshi,448
150786,其它区,,150700,qitaqu,448
150800,巴彦淖尔市,,150000,bayannaoershi,386
150802,临河区,,150800,linhequ,463
150821,五原县,,150800,wuyuanxian,463
150822,磴口县,,150800,kouxian,463
150823,乌拉特前旗,,150800,wulateqianqi,463
150824,乌拉特中旗,,150800,wulatezhongqi,463
150825,乌拉特后旗,,150800,wulatehouqi,463
150826,杭锦后旗,,150800,hangjinhouqi,463
150827,其它区,,150800,qitaqu,463
150900,乌兰察布市,,150000,wulanchabushi,386
150902,集宁区,,150900,jiningqu,472
150921,卓资县,,150900,zhuozixian,472
150922,化德县,,150900,huadexian,472
150923,商都县,,150900,shangduxian,472
150924,兴和县,,150900,xinghexian,472
150925,凉城县,,150900,liangchengxian,472
150926,察哈尔右翼前旗,,150900,chahaeryouyiqianqi,472
150927,察哈尔右翼中旗,,150900,chahaeryouyizhongqi,472
150928,察哈尔右翼后旗,,150900,chahaeryouyihouqi,472
150929,四子王旗,,150900,siziwangqi,472
150981,丰镇市,,150900,fengzhenshi,472
150982,其它区,,150900,qitaqu,472
152200,兴安盟,,150000,xinganmeng,386
152201,乌兰浩特市,,152200,wulanhaoteshi,485
152202,阿尔山市,,152200,aershanshi,485
152221,科尔沁右翼前旗,,152200,keerqinyouyiqianqi,485
152222,科尔沁右翼中旗,,152200,keerqinyouyizhongqi,485
152223,扎赉特旗,,152200,zhateqi,485
152224,突泉县,,152200,tuquanxian,485
152225,其它区,,152200,qitaqu,485
152500,锡林郭勒盟,,150000,xilinguolemeng,386
152501,二连浩特市,,152500,erlianhaoteshi,493
152502,锡林浩特市,,152500,xilinhaoteshi,493
152522,阿巴嘎旗,,152500,abagaqi,493
152523,苏尼特左旗,,152500,sunitezuoqi,493
152524,苏尼特右旗,,152500,suniteyouqi,493
152525,东乌珠穆沁旗,,152500,dongwuzhumuqinqi,493
152526,西乌珠穆沁旗,,152500,xiwuzhumuqinqi,493
152527,太仆寺旗,,152500,taipusiqi,493
152528,镶黄旗,,152500,xianghuangqi,493
152529,正镶白旗,,152500,zhengxiangbaiqi,493
152530,正蓝旗,,152500,zhenglanqi,493
152531,多伦县,,152500,duolunxian,493
152532,其它区,,152500,qitaqu,493
152900,阿拉善盟,,150000,alashanmeng,386
152921,阿拉善左旗,,152900,alashanzuoqi,507
152922,阿拉善右旗,,152900,alashanyouqi,507
152923,额济纳旗,,152900,ejinaqi,507
152924,其它区,,152900,qitaqu,507
210000,辽宁省,辽,0,liaoningsheng,null
210100,沈阳市,,210000,shenyangshi,512
210102,和平区,,210100,hepingqu,513
210103,沈河区,,210100,shenhequ,513
210104,大东区,,210100,dadongqu,513
210105,皇姑区,,210100,huangguqu,513
210106,铁西区,,210100,tiexiqu,513
210111,苏家屯区,,210100,sujiatunqu,513
210112,东陵区,,210100,donglingqu,513
210113,新城子区,,210100,xinchengziqu,513
210114,于洪区,,210100,yuhongqu,513
210122,辽中县,,210100,liaozhongxian,513
210123,康平县,,210100,kangpingxian,513
210124,法库县,,210100,fakuxian,513
210181,新民市,,210100,xinminshi,513
210182,浑南新区,,210100,hunnanxinqu,513
210183,张士开发区,,210100,zhangshikaifaqu,513
210184,沈北新区,,210100,shenbeixinqu,513
210185,其它区,,210100,qitaqu,513
210200,大连市,,210000,dalianshi,512
210202,中山区,,210200,zhongshanqu,531
210203,西岗区,,210200,xigangqu,531
210204,沙河口区,,210200,shahekouqu,531
210211,甘井子区,,210200,ganjingziqu,531
210212,旅顺口区,,210200,lvshunkouqu,531
210213,金州区,,210200,jinzhouqu,531
210224,长海县,,210200,changhaixian,531
210251,开发区,,210200,kaifaqu,531
210281,瓦房店市,,210200,wafangdianshi,531
210282,普兰店市,,210200,pulandianshi,531
210283,庄河市,,210200,zhuangheshi,531
210297,岭前区,,210200,lingqianqu,531
210298,其它区,,210200,qitaqu,531
210300,鞍山市,,210000,anshanshi,512
210302,铁东区,,210300,tiedongqu,545
210303,铁西区,,210300,tiexiqu,545
210304,立山区,,210300,lishanqu,545
210311,千山区,,210300,qianshanqu,545
210321,台安县,,210300,taianxian,545
210323,岫岩满族自治县,,210300,yanmanzuzizhixian,545
210351,高新区,,210300,gaoxinqu,545
210381,海城市,,210300,haichengshi,545
210382,其它区,,210300,qitaqu,545
210400,抚顺市,,210000,fushunshi,512
210402,新抚区,,210400,xinfuqu,555
210403,东洲区,,210400,dongzhouqu,555
210404,望花区,,210400,wanghuaqu,555
210411,顺城区,,210400,shunchengqu,555
210421,抚顺县,,210400,fushunxian,555
210422,新宾满族自治县,,210400,xinbinmanzuzizhixian,555
210423,清原满族自治县,,210400,qingyuanmanzuzizhixian,555
210424,其它区,,210400,qitaqu,555
210500,本溪市,,210000,benxishi,512
210502,平山区,,210500,pingshanqu,564
210503,溪湖区,,210500,xihuqu,564
210504,明山区,,210500,mingshanqu,564
210505,南芬区,,210500,nanfenqu,564
210521,本溪满族自治县,,210500,benximanzuzizhixian,564
210522,桓仁满族自治县,,210500,huanrenmanzuzizhixian,564
210523,其它区,,210500,qitaqu,564
210600,丹东市,,210000,dandongshi,512
210602,元宝区,,210600,yuanbaoqu,572
210603,振兴区,,210600,zhenxingqu,572
210604,振安区,,210600,zhenanqu,572
210624,宽甸满族自治县,,210600,kuandianmanzuzizhixian,572
210681,东港市,,210600,donggangshi,572
210682,凤城市,,210600,fengchengshi,572
210683,其它区,,210600,qitaqu,572
210700,锦州市,,210000,jinzhoushi,512
210702,古塔区,,210700,gutaqu,580
210703,凌河区,,210700,linghequ,580
210711,太和区,,210700,taihequ,580
210726,黑山县,,210700,heishanxian,580
210727,义县,,210700,yixian,580
210781,凌海市,,210700,linghaishi,580
210782,北镇市,,210700,beizhenshi,580
210783,其它区,,210700,qitaqu,580
210800,营口市,,210000,yingkoushi,512
210802,站前区,,210800,zhanqianqu,589
210803,西市区,,210800,xishiqu,589
210804,鲅鱼圈区,,210800,yuquanqu,589
210811,老边区,,210800,laobianqu,589
210881,盖州市,,210800,gaizhoushi,589
210882,大石桥市,,210800,dashiqiaoshi,589
210883,其它区,,210800,qitaqu,589
210900,阜新市,,210000,fuxinshi,512
210902,海州区,,210900,haizhouqu,597
210903,新邱区,,210900,xinqiuqu,597
210904,太平区,,210900,taipingqu,597
210905,清河门区,,210900,qinghemenqu,597
210911,细河区,,210900,xihequ,597
210921,阜新蒙古族自治县,,210900,fuxinmengguzuzizhixian,597
210922,彰武县,,210900,zhangwuxian,597
210923,其它区,,210900,qitaqu,597
211000,辽阳市,,210000,liaoyangshi,512
211002,白塔区,,211000,baitaqu,606
211003,文圣区,,211000,wenshengqu,606
211004,宏伟区,,211000,hongweiqu,606
211005,弓长岭区,,211000,gongchanglingqu,606
211011,太子河区,,211000,taizihequ,606
211021,辽阳县,,211000,liaoyangxian,606
211081,灯塔市,,211000,dengtashi,606
211082,其它区,,211000,qitaqu,606
211100,盘锦市,,210000,panjinshi,512
211102,双台子区,,211100,shuangtaiziqu,615
211103,兴隆台区,,211100,xinglongtaiqu,615
211121,大洼县,,211100,dawaxian,615
211122,盘山县,,211100,panshanxian,615
211123,其它区,,211100,qitaqu,615
211200,铁岭市,,210000,tielingshi,512
211202,银州区,,211200,yinzhouqu,621
211204,清河区,,211200,qinghequ,621
211221,铁岭县,,211200,tielingxian,621
211223,西丰县,,211200,xifengxian,621
211224,昌图县,,211200,changtuxian,621
211281,调兵山市,,211200,diaobingshanshi,621
211282,开原市,,211200,kaiyuanshi,621
211283,其它区,,211200,qitaqu,621
211300,朝阳市,,210000,chaoyangshi,512
211302,双塔区,,211300,shuangtaqu,630
211303,龙城区,,211300,longchengqu,630
211321,朝阳县,,211300,chaoyangxian,630
211322,建平县,,211300,jianpingxian,630
211324,喀喇沁左翼蒙古族自治县,,211300,kalaqinzuoyimengguzuzizhixian,630
211381,北票市,,211300,beipiaoshi,630
211382,凌源市,,211300,lingyuanshi,630
211383,其它区,,211300,qitaqu,630
211400,葫芦岛市,,210000,huludaoshi,512
211402,连山区,,211400,lianshanqu,639
211403,龙港区,,211400,longgangqu,639
211404,南票区,,211400,nanpiaoqu,639
211421,绥中县,,211400,suizhongxian,639
211422,建昌县,,211400,jianchangxian,639
211481,兴城市,,211400,xingchengshi,639
211482,其它区,,211400,qitaqu,639
220000,吉林省,吉,0,jilinsheng,null
220100,长春市,,220000,changchunshi,647
220102,南关区,,220100,nanguanqu,648
220103,宽城区,,220100,kuanchengqu,648
220104,朝阳区,,220100,chaoyangqu,648
220105,二道区,,220100,erdaoqu,648
220106,绿园区,,220100,lvyuanqu,648
220112,双阳区,,220100,shuangyangqu,648
220122,农安县,,220100,nonganxian,648
220181,九台市,,220100,jiutaishi,648
220182,榆树市,,220100,yushushi,648
220183,德惠市,,220100,dehuishi,648
220184,高新技术产业开发区,,220100,gaoxinjishuchanyekaifaqu,648
220185,汽车产业开发区,,220100,qichechanyekaifaqu,648
220186,经济技术开发区,,220100,jingjijishukaifaqu,648
220187,净月旅游开发区,,220100,jingyuelvyoukaifaqu,648
220188,其它区,,220100,qitaqu,648
220200,吉林市,,220000,jilinshi,647
220202,昌邑区,,220200,changyiqu,664
220203,龙潭区,,220200,longtanqu,664
220204,船营区,,220200,chuanyingqu,664
220211,丰满区,,220200,fengmanqu,664
220221,永吉县,,220200,yongjixian,664
220281,蛟河市,,220200,heshi,664
220282,桦甸市,,220200,dianshi,664
220283,舒兰市,,220200,shulanshi,664
220284,磐石市,,220200,panshishi,664
220285,其它区,,220200,qitaqu,664
220300,四平市,,220000,sipingshi,647
220302,铁西区,,220300,tiexiqu,675
220303,铁东区,,220300,tiedongqu,675
220322,梨树县,,220300,lishuxian,675
220323,伊通满族自治县,,220300,yitongmanzuzizhixian,675
220381,公主岭市,,220300,gongzhulingshi,675
220382,双辽市,,220300,shuangliaoshi,675
220383,其它区,,220300,qitaqu,675
220400,辽源市,,220000,liaoyuanshi,647
220402,龙山区,,220400,longshanqu,683
220403,西安区,,220400,xianqu,683
220421,东丰县,,220400,dongfengxian,683
220422,东辽县,,220400,dongliaoxian,683
220423,其它区,,220400,qitaqu,683
220500,通化市,,220000,tonghuashi,647
220502,东昌区,,220500,dongchangqu,689
220503,二道江区,,220500,erdaojiangqu,689
220521,通化县,,220500,tonghuaxian,689
220523,辉南县,,220500,huinanxian,689
220524,柳河县,,220500,liuhexian,689
220581,梅河口市,,220500,meihekoushi,689
220582,集安市,,220500,jianshi,689
220583,其它区,,220500,qitaqu,689
220600,白山市,,220000,baishanshi,647
220602,八道江区,,220600,badaojiangqu,698
220621,抚松县,,220600,fusongxian,698
220622,靖宇县,,220600,jingyuxian,698
220623,长白朝鲜族自治县,,220600,changbaichaoxianzuzizhixian,698
220625,江源县,,220600,jiangyuanxian,698
220681,临江市,,220600,linjiangshi,698
220682,其它区,,220600,qitaqu,698
220700,松原市,,220000,songyuanshi,647
220702,宁江区,,220700,ningjiangqu,706
220721,前郭尔罗斯蒙古族自治县,,220700,qianguoerluosimengguzuzizhixian,706
220722,长岭县,,220700,changlingxian,706
220723,乾安县,,220700,qiananxian,706
220724,扶余县,,220700,fuyuxian,706
220725,其它区,,220700,qitaqu,706
220800,白城市,,220000,baichengshi,647
220802,洮北区,,220800,beiqu,713
220821,镇赉县,,220800,zhenxian,713
220822,通榆县,,220800,tongyuxian,713
220881,洮南市,,220800,nanshi,713
220882,大安市,,220800,daanshi,713
220883,其它区,,220800,qitaqu,713
222400,延边朝鲜族自治州,,220000,yanbianchaoxianzuzizhizhou,647
222401,延吉市,,222400,yanjishi,720
222402,图们市,,222400,tumenshi,720
222403,敦化市,,222400,dunhuashi,720
222404,珲春市,,222400,chunshi,720
222405,龙井市,,222400,longjingshi,720
222406,和龙市,,222400,helongshi,720
222424,汪清县,,222400,wangqingxian,720
222426,安图县,,222400,antuxian,720
222427,其它区,,222400,qitaqu,720
230000,黑龙江省,黑,0,heilongjiangsheng,null
230100,哈尔滨市,,230000,haerbinshi,730
230102,道里区,,230100,daoliqu,731
230103,南岗区,,230100,nangangqu,731
230104,道外区,,230100,daowaiqu,731
230106,香坊区,,230100,xiangfangqu,731
230107,动力区,,230100,dongliqu,731
230108,平房区,,230100,pingfangqu,731
230109,松北区,,230100,songbeiqu,731
230111,呼兰区,,230100,hulanqu,731
230123,依兰县,,230100,yilanxian,731
230124,方正县,,230100,fangzhengxian,731
230125,宾县,,230100,binxian,731
230126,巴彦县,,230100,bayanxian,731
230127,木兰县,,230100,mulanxian,731
230128,通河县,,230100,tonghexian,731
230129,延寿县,,230100,yanshouxian,731
230181,阿城市,,230100,achengshi,731
230182,双城市,,230100,shuangchengshi,731
230183,尚志市,,230100,shangzhishi,731
230184,五常市,,230100,wuchangshi,731
230185,阿城市,,230100,achengshi,731
230186,其它区,,230100,qitaqu,731
230200,齐齐哈尔市,,230000,qiqihaershi,730
230202,龙沙区,,230200,longshaqu,753
230203,建华区,,230200,jianhuaqu,753
230204,铁锋区,,230200,tiefengqu,753
230205,昂昂溪区,,230200,angangxiqu,753
230206,富拉尔基区,,230200,fulaerjiqu,753
230207,碾子山区,,230200,nianzishanqu,753
230208,梅里斯达斡尔族区,,230200,meilisidawoerzuqu,753
230221,龙江县,,230200,longjiangxian,753
230223,依安县,,230200,yianxian,753
230224,泰来县,,230200,tailaixian,753
230225,甘南县,,230200,gannanxian,753
230227,富裕县,,230200,fuyuxian,753
230229,克山县,,230200,keshanxian,753
230230,克东县,,230200,kedongxian,753
230231,拜泉县,,230200,baiquanxian,753
230281,讷河市,,230200,heshi,753
230282,其它区,,230200,qitaqu,753
230300,鸡西市,,230000,jixishi,730
230302,鸡冠区,,230300,jiguanqu,771
230303,恒山区,,230300,hengshanqu,771
230304,滴道区,,230300,didaoqu,771
230305,梨树区,,230300,lishuqu,771
230306,城子河区,,230300,chengzihequ,771
230307,麻山区,,230300,mashanqu,771
230321,鸡东县,,230300,jidongxian,771
230381,虎林市,,230300,hulinshi,771
230382,密山市,,230300,mishanshi,771
230383,其它区,,230300,qitaqu,771
230400,鹤岗市,,230000,hegangshi,730
230402,向阳区,,230400,xiangyangqu,782
230403,工农区,,230400,gongnongqu,782
230404,南山区,,230400,nanshanqu,782
230405,兴安区,,230400,xinganqu,782
230406,东山区,,230400,dongshanqu,782
230407,兴山区,,230400,xingshanqu,782
230421,萝北县,,230400,luobeixian,782
230422,绥滨县,,230400,suibinxian,782
230423,其它区,,230400,qitaqu,782
230500,双鸭山市,,230000,shuangyashanshi,730
230502,尖山区,,230500,jianshanqu,792
230503,岭东区,,230500,lingdongqu,792
230505,四方台区,,230500,sifangtaiqu,792
230506,宝山区,,230500,baoshanqu,792
230521,集贤县,,230500,jixianxian,792
230522,友谊县,,230500,youyixian,792
230523,宝清县,,230500,baoqingxian,792
230524,饶河县,,230500,raohexian,792
230525,其它区,,230500,qitaqu,792
230600,大庆市,,230000,daqingshi,730
230602,萨尔图区,,230600,saertuqu,802
230603,龙凤区,,230600,longfengqu,802
230604,让胡路区,,230600,ranghuluqu,802
230605,红岗区,,230600,honggangqu,802
230606,大同区,,230600,datongqu,802
230621,肇州县,,230600,zhaozhouxian,802
230622,肇源县,,230600,zhaoyuanxian,802
230623,林甸县,,230600,lindianxian,802
230624,杜尔伯特蒙古族自治县,,230600,duerbotemengguzuzizhixian,802
230625,其它区,,230600,qitaqu,802
230700,伊春市,,230000,yichunshi,730
230702,伊春区,,230700,yichunqu,813
230703,南岔区,,230700,nanchaqu,813
230704,友好区,,230700,youhaoqu,813
230705,西林区,,230700,xilinqu,813
230706,翠峦区,,230700,cuiluanqu,813
230707,新青区,,230700,xinqingqu,813
230708,美溪区,,230700,meixiqu,813
230709,金山屯区,,230700,jinshantunqu,813
230710,五营区,,230700,wuyingqu,813
230711,乌马河区,,230700,wumahequ,813
230712,汤旺河区,,230700,tangwanghequ,813
230713,带岭区,,230700,dailingqu,813
230714,乌伊岭区,,230700,wuyilingqu,813
230715,红星区,,230700,hongxingqu,813
230716,上甘岭区,,230700,shangganlingqu,813
230722,嘉荫县,,230700,jiayinxian,813
230781,铁力市,,230700,tielishi,813
230782,其它区,,230700,qitaqu,813
230800,佳木斯市,,230000,jiamusishi,730
230802,永红区,,230800,yonghongqu,832
230803,向阳区,,230800,xiangyangqu,832
230804,前进区,,230800,qianjinqu,832
230805,东风区,,230800,dongfengqu,832
230811,郊区,,230800,jiaoqu,832
230822,桦南县,,230800,nanxian,832
230826,桦川县,,230800,chuanxian,832
230828,汤原县,,230800,tangyuanxian,832
230833,抚远县,,230800,fuyuanxian,832
230881,同江市,,230800,tongjiangshi,832
230882,富锦市,,230800,fujinshi,832
230883,其它区,,230800,qitaqu,832
230900,七台河市,,230000,qitaiheshi,730
230902,新兴区,,230900,xinxingqu,845
230903,桃山区,,230900,taoshanqu,845
230904,茄子河区,,230900,qiezihequ,845
230921,勃利县,,230900,bolixian,845
230922,其它区,,230900,qitaqu,845
231000,牡丹江市,,230000,mudanjiangshi,730
231002,东安区,,231000,donganqu,851
231003,阳明区,,231000,yangmingqu,851
231004,爱民区,,231000,aiminqu,851
231005,西安区,,231000,xianqu,851
231024,东宁县,,231000,dongningxian,851
231025,林口县,,231000,linkouxian,851
231081,绥芬河市,,231000,suifenheshi,851
231083,海林市,,231000,hailinshi,851
231084,宁安市,,231000,ninganshi,851
231085,穆棱市,,231000,mulengshi,851
231086,其它区,,231000,qitaqu,851
231100,黑河市,,230000,heiheshi,730
231102,爱辉区,,231100,aihuiqu,863
231121,嫩江县,,231100,nenjiangxian,863
231123,逊克县,,231100,xunkexian,863
231124,孙吴县,,231100,sunwuxian,863
231181,北安市,,231100,beianshi,863
231182,五大连池市,,231100,wudalianchishi,863
231183,其它区,,231100,qitaqu,863
231200,绥化市,,230000,suihuashi,730
231202,北林区,,231200,beilinqu,871
231221,望奎县,,231200,wangkuixian,871
231222,兰西县,,231200,lanxixian,871
231223,青冈县,,231200,qinggangxian,871
231224,庆安县,,231200,qinganxian,871
231225,明水县,,231200,mingshuixian,871
231226,绥棱县,,231200,suilengxian,871
231281,安达市,,231200,andashi,871
231282,肇东市,,231200,zhaodongshi,871
231283,海伦市,,231200,hailunshi,871
231284,其它区,,231200,qitaqu,871
232700,大兴安岭地区,,230000,daxinganlingdiqu,730
232721,呼玛县,,232700,humaxian,883
232722,塔河县,,232700,tahexian,883
232723,漠河县,,232700,mohexian,883
232724,加格达奇区,,232700,jiagedaqiqu,883
232725,其它区,,232700,qitaqu,883
310000,上海,沪,0,shanghai,null
310100,上海市,,310000,shanghaishi,889
310101,黄浦区,,310100,huangpuqu,890
310103,卢湾区,,310100,luwanqu,890
310104,徐汇区,,310100,xuhuiqu,890
310105,长宁区,,310100,changningqu,890
310106,静安区,,310100,jinganqu,890
310107,普陀区,,310100,putuoqu,890
310108,闸北区,,310100,zhabeiqu,890
310109,虹口区,,310100,hongkouqu,890
310110,杨浦区,,310100,yangpuqu,890
310112,闵行区,,310100,xingqu,890
310113,宝山区,,310100,baoshanqu,890
310114,嘉定区,,310100,jiadingqu,890
310115,浦东新区,,310100,pudongxinqu,890
310116,金山区,,310100,jinshanqu,890
310117,松江区,,310100,songjiangqu,890
310118,青浦区,,310100,qingpuqu,890
310119,南汇区,,310100,nanhuiqu,890
310120,奉贤区,,310100,fengxianqu,890
310152,川沙区,,310100,chuanshaqu,890
310230,崇明县,,310100,chongmingxian,890
310231,其它区,,310100,qitaqu,890
320000,江苏省,苏,0,jiangsusheng,null
320100,南京市,,320000,nanjingshi,912
320102,玄武区,,320100,xuanwuqu,913
320103,白下区,,320100,baixiaqu,913
320104,秦淮区,,320100,qinhuaiqu,913
320105,建邺区,,320100,jianqu,913
320106,鼓楼区,,320100,gulouqu,913
320107,下关区,,320100,xiaguanqu,913
320111,浦口区,,320100,pukouqu,913
320113,栖霞区,,320100,qixiaqu,913
320114,雨花台区,,320100,yuhuataiqu,913
320115,江宁区,,320100,jiangningqu,913
320116,六合区,,320100,liuhequ,913
320124,溧水县,,320100,shuixian,913
320125,高淳县,,320100,gaochunxian,913
320126,其它区,,320100,qitaqu,913
320200,无锡市,,320000,wuxishi,912
320202,崇安区,,320200,chonganqu,928
320203,南长区,,320200,nanchangqu,928
320204,北塘区,,320200,beitangqu,928
320205,锡山区,,320200,xishanqu,928
320206,惠山区,,320200,huishanqu,928
320211,滨湖区,,320200,binhuqu,928
320281,江阴市,,320200,jiangyinshi,928
320282,宜兴市,,320200,yixingshi,928
320296,新区,,320200,xinqu,928
320297,其它区,,320200,qitaqu,928
320300,徐州市,,320000,xuzhoushi,912
320302,鼓楼区,,320300,gulouqu,939
320303,云龙区,,320300,yunlongqu,939
320304,九里区,,320300,jiuliqu,939
320305,贾汪区,,320300,jiawangqu,939
320311,泉山区,,320300,quanshanqu,939
320321,丰县,,320300,fengxian,939
320322,沛县,,320300,peixian,939
320323,铜山县,,320300,tongshanxian,939
320324,睢宁县,,320300,ningxian,939
320381,新沂市,,320300,xinyishi,939
320382,邳州市,,320300,zhoushi,939
320383,其它区,,320300,qitaqu,939
320400,常州市,,320000,changzhoushi,912
320402,天宁区,,320400,tianningqu,952
320404,钟楼区,,320400,zhonglouqu,952
320405,戚墅堰区,,320400,qishuyanqu,952
320411,新北区,,320400,xinbeiqu,952
320412,武进区,,320400,wujinqu,952
320481,溧阳市,,320400,yangshi,952
320482,金坛市,,320400,jintanshi,952
320483,其它区,,320400,qitaqu,952
320500,苏州市,,320000,suzhoushi,912
320502,沧浪区,,320500,canglangqu,961
320503,平江区,,320500,pingjiangqu,961
320504,金阊区,,320500,jinqu,961
320505,虎丘区,,320500,huqiuqu,961
320506,吴中区,,320500,wuzhongqu,961
320507,相城区,,320500,xiangchengqu,961
320581,常熟市,,320500,changshushi,961
320582,张家港市,,320500,zhangjiagangshi,961
320583,昆山市,,320500,kunshanshi,961
320584,吴江市,,320500,wujiangshi,961
320585,太仓市,,320500,taicangshi,961
320594,新区,,320500,xinqu,961
320595,园区,,320500,yuanqu,961
320596,其它区,,320500,qitaqu,961
320600,南通市,,320000,nantongshi,912
320602,崇川区,,320600,chongchuanqu,976
320611,港闸区,,320600,gangzhaqu,976
320612,通州区,,320600,tongzhouqu,976
320621,海安县,,320600,haianxian,976
320623,如东县,,320600,rudongxian,976
320681,启东市,,320600,qidongshi,976
320682,如皋市,,320600,rugaoshi,976
320683,通州市,,320600,tongzhoushi,976
320684,海门市,,320600,haimenshi,976
320693,开发区,,320600,kaifaqu,976
320694,其它区,,320600,qitaqu,976
320700,连云港市,,320000,lianyungangshi,912
320703,连云区,,320700,lianyunqu,988
320705,新浦区,,320700,xinpuqu,988
320706,海州区,,320700,haizhouqu,988
320721,赣榆县,,320700,ganyuxian,988
320722,东海县,,320700,donghaixian,988
320723,灌云县,,320700,guanyunxian,988
320724,灌南县,,320700,guannanxian,988
320725,其它区,,320700,qitaqu,988
320800,淮安市,,320000,huaianshi,912
320802,清河区,,320800,qinghequ,997
320803,楚州区,,320800,chuzhouqu,997
320804,淮阴区,,320800,huaiyinqu,997
320811,清浦区,,320800,qingpuqu,997
320826,涟水县,,320800,lianshuixian,997
320829,洪泽县,,320800,hongzexian,997
320830,盱眙县,,320800,xian,997
320831,金湖县,,320800,jinhuxian,997
320832,其它区,,320800,qitaqu,997
320900,盐城市,,320000,yanchengshi,912
320902,亭湖区,,320900,tinghuqu,1007
320903,盐都区,,320900,yanduqu,1007
320921,响水县,,320900,xiangshuixian,1007
320922,滨海县,,320900,binhaixian,1007
320923,阜宁县,,320900,funingxian,1007
320924,射阳县,,320900,sheyangxian,1007
320925,建湖县,,320900,jianhuxian,1007
320981,东台市,,320900,dongtaishi,1007
320982,大丰市,,320900,dafengshi,1007
320983,其它区,,320900,qitaqu,1007
321000,扬州市,,320000,yangzhoushi,912
321002,广陵区,,321000,guanglingqu,1018
321003,邗江区,,321000,jiangqu,1018
321011,维扬区,,321000,weiyangqu,1018
321023,宝应县,,321000,baoyingxian,1018
321081,仪征市,,321000,yizhengshi,1018
321084,高邮市,,321000,gaoyoushi,1018
321088,江都市,,321000,jiangdushi,1018
321092,经济开发区,,321000,jingjikaifaqu,1018
321093,其它区,,321000,qitaqu,1018
321100,镇江市,,320000,zhenjiangshi,912
321102,京口区,,321100,jingkouqu,1028
321111,润州区,,321100,runzhouqu,1028
321112,丹徒区,,321100,dantuqu,1028
321181,丹阳市,,321100,danyangshi,1028
321182,扬中市,,321100,yangzhongshi,1028
321183,句容市,,321100,jurongshi,1028
321184,其它区,,321100,qitaqu,1028
321200,泰州市,,320000,taizhoushi,912
321202,海陵区,,321200,hailingqu,1036
321203,高港区,,321200,gaogangqu,1036
321281,兴化市,,321200,xinghuashi,1036
321282,靖江市,,321200,jingjiangshi,1036
321283,泰兴市,,321200,taixingshi,1036
321284,姜堰市,,321200,jiangyanshi,1036
321285,其它区,,321200,qitaqu,1036
321300,宿迁市,,320000,suqianshi,912
321302,宿城区,,321300,suchengqu,1044
321311,宿豫区,,321300,suyuqu,1044
321322,沭阳县,,321300,yangxian,1044
321323,泗阳县,,321300,yangxian,1044
321324,泗洪县,,321300,hongxian,1044
321325,其它区,,321300,qitaqu,1044
330000,浙江省,浙,0,zhejiangsheng,null
330100,杭州市,,330000,hangzhoushi,1051
330102,上城区,,330100,shangchengqu,1052
330103,下城区,,330100,xiachengqu,1052
330104,江干区,,330100,jiangganqu,1052
330105,拱墅区,,330100,gongshuqu,1052
330106,西湖区,,330100,xihuqu,1052
330108,滨江区,,330100,binjiangqu,1052
330109,萧山区,,330100,xiaoshanqu,1052
330110,余杭区,,330100,yuhangqu,1052
330122,桐庐县,,330100,tongluxian,1052
330127,淳安县,,330100,chunanxian,1052
330182,建德市,,330100,jiandeshi,1052
330183,富阳市,,330100,fuyangshi,1052
330185,临安市,,330100,linanshi,1052
330186,其它区,,330100,qitaqu,1052
330200,宁波市,,330000,ningboshi,1051
330203,海曙区,,330200,haishuqu,1067
330204,江东区,,330200,jiangdongqu,1067
330205,江北区,,330200,jiangbeiqu,1067
330206,北仑区,,330200,beilunqu,1067
330211,镇海区,,330200,zhenhaiqu,1067
330212,鄞州区,,330200,zhouqu,1067
330225,象山县,,330200,xiangshanxian,1067
330226,宁海县,,330200,ninghaixian,1067
330281,余姚市,,330200,yuyaoshi,1067
330282,慈溪市,,330200,cixishi,1067
330283,奉化市,,330200,fenghuashi,1067
330284,其它区,,330200,qitaqu,1067
330300,温州市,,330000,wenzhoushi,1051
330302,鹿城区,,330300,luchengqu,1080
330303,龙湾区,,330300,longwanqu,1080
330304,瓯海区,,330300,haiqu,1080
330322,洞头县,,330300,dongtouxian,1080
330324,永嘉县,,330300,yongjiaxian,1080
330326,平阳县,,330300,pingyangxian,1080
330327,苍南县,,330300,cangnanxian,1080
330328,文成县,,330300,wenchengxian,1080
330329,泰顺县,,330300,taishunxian,1080
330381,瑞安市,,330300,ruianshi,1080
330382,乐清市,,330300,leqingshi,1080
330383,其它区,,330300,qitaqu,1080
330400,嘉兴市,,330000,jiaxingshi,1051
330402,南湖区,,330400,nanhuqu,1093
330411,秀洲区,,330400,xiuzhouqu,1093
330421,嘉善县,,330400,jiashanxian,1093
330424,海盐县,,330400,haiyanxian,1093
330481,海宁市,,330400,hainingshi,1093
330482,平湖市,,330400,pinghushi,1093
330483,桐乡市,,330400,tongxiangshi,1093
330484,其它区,,330400,qitaqu,1093
330500,湖州市,,330000,huzhoushi,1051
330502,吴兴区,,330500,wuxingqu,1102
330503,南浔区,,330500,nanqu,1102
330521,德清县,,330500,deqingxian,1102
330522,长兴县,,330500,changxingxian,1102
330523,安吉县,,330500,anjixian,1102
330524,其它区,,330500,qitaqu,1102
330600,绍兴市,,330000,shaoxingshi,1051
330602,越城区,,330600,yuechengqu,1109
330621,绍兴县,,330600,shaoxingxian,1109
330624,新昌县,,330600,xinchangxian,1109
330681,诸暨市,,330600,zhushi,1109
330682,上虞市,,330600,shangyushi,1109
330683,嵊州市,,330600,zhoushi,1109
330684,其它区,,330600,qitaqu,1109
330700,金华市,,330000,jinhuashi,1051
330702,婺城区,,330700,chengqu,1117
330703,金东区,,330700,jindongqu,1117
330723,武义县,,330700,wuyixian,1117
330726,浦江县,,330700,pujiangxian,1117
330727,磐安县,,330700,pananxian,1117
330781,兰溪市,,330700,lanxishi,1117
330782,义乌市,,330700,yiwushi,1117
330783,东阳市,,330700,dongyangshi,1117
330784,永康市,,330700,yongkangshi,1117
330785,其它区,,330700,qitaqu,1117
330800,衢州市,,330000,zhoushi,1051
330802,柯城区,,330800,kechengqu,1128
330803,衢江区,,330800,jiangqu,1128
330822,常山县,,330800,changshanxian,1128
330824,开化县,,330800,kaihuaxian,1128
330825,龙游县,,330800,longyouxian,1128
330881,江山市,,330800,jiangshanshi,1128
330882,其它区,,330800,qitaqu,1128
330900,舟山市,,330000,zhoushanshi,1051
330902,定海区,,330900,dinghaiqu,1136
330903,普陀区,,330900,putuoqu,1136
330921,岱山县,,330900,shanxian,1136
330922,嵊泗县,,330900,xian,1136
330923,其它区,,330900,qitaqu,1136
331000,台州市,,330000,taizhoushi,1051
331002,椒江区,,331000,jiaojiangqu,1142
331003,黄岩区,,331000,huangyanqu,1142
331004,路桥区,,331000,luqiaoqu,1142
331021,玉环县,,331000,yuhuanxian,1142
331022,三门县,,331000,sanmenxian,1142
331023,天台县,,331000,tiantaixian,1142
331024,仙居县,,331000,xianjuxian,1142
331081,温岭市,,331000,wenlingshi,1142
331082,临海市,,331000,linhaishi,1142
331083,其它区,,331000,qitaqu,1142
331100,丽水市,,330000,lishuishi,1051
331102,莲都区,,331100,lianduqu,1153
331121,青田县,,331100,qingtianxian,1153
331122,缙云县,,331100,yunxian,1153
331123,遂昌县,,331100,suichangxian,1153
331124,松阳县,,331100,songyangxian,1153
331125,云和县,,331100,yunhexian,1153
331126,庆元县,,331100,qingyuanxian,1153
331127,景宁畲族自治县,,331100,jingningzuzizhixian,1153
331181,龙泉市,,331100,longquanshi,1153
331182,其它区,,331100,qitaqu,1153
340000,安徽省,皖,0,anhuisheng,null
340100,合肥市,,340000,hefeishi,1164
340102,瑶海区,,340100,yaohaiqu,1165
340103,庐阳区,,340100,luyangqu,1165
340104,蜀山区,,340100,shushanqu,1165
340111,包河区,,340100,baohequ,1165
340121,长丰县,,340100,changfengxian,1165
340122,肥东县,,340100,feidongxian,1165
340123,肥西县,,340100,feixixian,1165
340151,高新区,,340100,gaoxinqu,1165
340191,中区,,340100,zhongqu,1165
340192,其它区,,340100,qitaqu,1165
340200,芜湖市,,340000,wuhushi,1164
340202,镜湖区,,340200,jinghuqu,1176
340203,弋江区,,340200,jiangqu,1176
340207,鸠江区,,340200,jiangqu,1176
340208,三山区,,340200,sanshanqu,1176
340221,芜湖县,,340200,wuhuxian,1176
340222,繁昌县,,340200,fanchangxian,1176
340223,南陵县,,340200,nanlingxian,1176
340224,其它区,,340200,qitaqu,1176
340300,蚌埠市,,340000,bangbushi,1164
340302,龙子湖区,,340300,longzihuqu,1185
340303,蚌山区,,340300,bangshanqu,1185
340304,禹会区,,340300,yuhuiqu,1185
340311,淮上区,,340300,huaishangqu,1185
340321,怀远县,,340300,huaiyuanxian,1185
340322,五河县,,340300,wuhexian,1185
340323,固镇县,,340300,guzhenxian,1185
340324,其它区,,340300,qitaqu,1185
340400,淮南市,,340000,huainanshi,1164
340402,大通区,,340400,datongqu,1194
340403,田家庵区,,340400,tianjiaqu,1194
340404,谢家集区,,340400,xiejiajiqu,1194
340405,八公山区,,340400,bagongshanqu,1194
340406,潘集区,,340400,panjiqu,1194
340421,凤台县,,340400,fengtaixian,1194
340422,其它区,,340400,qitaqu,1194
340500,马鞍山市,,340000,maanshanshi,1164
340502,金家庄区,,340500,jinjiazhuangqu,1202
340503,花山区,,340500,huashanqu,1202
340504,雨山区,,340500,yushanqu,1202
340521,当涂县,,340500,dangtuxian,1202
340522,其它区,,340500,qitaqu,1202
340600,淮北市,,340000,huaibeishi,1164
340602,杜集区,,340600,dujiqu,1208
340603,相山区,,340600,xiangshanqu,1208
340604,烈山区,,340600,lieshanqu,1208
340621,濉溪县,,340600,xixian,1208
340622,其它区,,340600,qitaqu,1208
340700,铜陵市,,340000,tonglingshi,1164
340702,铜官山区,,340700,tongguanshanqu,1214
340703,狮子山区,,340700,shizishanqu,1214
340711,郊区,,340700,jiaoqu,1214
340721,铜陵县,,340700,tonglingxian,1214
340722,其它区,,340700,qitaqu,1214
340800,安庆市,,340000,anqingshi,1164
340802,迎江区,,340800,yingjiangqu,1220
340803,大观区,,340800,daguanqu,1220
340811,宜秀区,,340800,yixiuqu,1220
340822,怀宁县,,340800,huainingxian,1220
340823,枞阳县,,340800,yangxian,1220
340824,潜山县,,340800,qianshanxian,1220
340825,太湖县,,340800,taihuxian,1220
340826,宿松县,,340800,susongxian,1220
340827,望江县,,340800,wangjiangxian,1220
340828,岳西县,,340800,yuexixian,1220
340881,桐城市,,340800,tongchengshi,1220
340882,其它区,,340800,qitaqu,1220
341000,黄山市,,340000,huangshanshi,1164
341002,屯溪区,,341000,tunxiqu,1233
341003,黄山区,,341000,huangshanqu,1233
341004,徽州区,,341000,huizhouqu,1233
341021,歙县,,341000,xian,1233
341022,休宁县,,341000,xiuningxian,1233
341023,黟县,,341000,xian,1233
341024,祁门县,,341000,qimenxian,1233
341025,其它区,,341000,qitaqu,1233
341100,滁州市,,340000,chuzhoushi,1164
341102,琅琊区,,341100,langqu,1242
341103,南谯区,,341100,nanqu,1242
341122,来安县,,341100,laianxian,1242
341124,全椒县,,341100,quanjiaoxian,1242
341125,定远县,,341100,dingyuanxian,1242
341126,凤阳县,,341100,fengyangxian,1242
341181,天长市,,341100,tianchangshi,1242
341182,明光市,,341100,mingguangshi,1242
341183,其它区,,341100,qitaqu,1242
341200,阜阳市,,340000,fuyangshi,1164
341202,颍州区,,341200,zhouqu,1252
341203,颍东区,,341200,dongqu,1252
341204,颍泉区,,341200,quanqu,1252
341221,临泉县,,341200,linquanxian,1252
341222,太和县,,341200,taihexian,1252
341225,阜南县,,341200,funanxian,1252
341226,颍上县,,341200,shangxian,1252
341282,界首市,,341200,jieshoushi,1252
341283,其它区,,341200,qitaqu,1252
341300,宿州市,,340000,suzhoushi,1164
341302,埇桥区,,341300,,1262
341321,砀山县,,341300,shanxian,1262
341322,萧县,,341300,xiaoxian,1262
341323,灵璧县,,341300,lingxian,1262
341324,泗县,,341300,xian,1262
341325,其它区,,341300,qitaqu,1262
341400,巢湖市,,340100,chaohushi,1262
341402,居巢区,,340100,juchaoqu,1262
341421,庐江县,,340100,lujiangxian,1262
341422,无为县,,340200,wuweixian,1262
341423,含山县,,340500,hanshanxian,1262
341424,和县,,340500,hexian,1262
341500,六安市,,340000,liuanshi,1164
341502,金安区,,341500,jinanqu,1275
341503,裕安区,,341500,yuanqu,1275
341521,寿县,,341500,shouxian,1275
341522,霍邱县,,341500,huoqiuxian,1275
341523,舒城县,,341500,shuchengxian,1275
341524,金寨县,,341500,jinzhaixian,1275
341525,霍山县,,341500,huoshanxian,1275
341526,其它区,,341500,qitaqu,1275
341600,亳州市,,340000,zhoushi,1164
341602,谯城区,,341600,chengqu,1284
341621,涡阳县,,341600,woyangxian,1284
341622,蒙城县,,341600,mengchengxian,1284
341623,利辛县,,341600,lixinxian,1284
341624,其它区,,341600,qitaqu,1284
341700,池州市,,340000,chizhoushi,1164
341702,贵池区,,341700,guichiqu,1290
341721,东至县,,341700,dongzhixian,1290
341722,石台县,,341700,shitaixian,1290
341723,青阳县,,341700,qingyangxian,1290
341724,其它区,,341700,qitaqu,1290
341800,宣城市,,340000,xuanchengshi,1164
341802,宣州区,,341800,xuanzhouqu,1296
341821,郎溪县,,341800,langxixian,1296
341822,广德县,,341800,guangdexian,1296
341823,泾县,,341800,xian,1296
341824,绩溪县,,341800,jixixian,1296
341825,旌德县,,341800,dexian,1296
341881,宁国市,,341800,ningguoshi,1296
341882,其它区,,341800,qitaqu,1296
350000,福建省,闽,0,fujiansheng,null
350100,福州市,,350000,fuzhoushi,1305
350102,鼓楼区,,350100,gulouqu,1306
350103,台江区,,350100,taijiangqu,1306
350104,仓山区,,350100,cangshanqu,1306
350105,马尾区,,350100,maweiqu,1306
350111,晋安区,,350100,jinanqu,1306
350121,闽侯县,,350100,minhouxian,1306
350122,连江县,,350100,lianjiangxian,1306
350123,罗源县,,350100,luoyuanxian,1306
350124,闽清县,,350100,minqingxian,1306
350125,永泰县,,350100,yongtaixian,1306
350128,平潭县,,350100,pingtanxian,1306
350181,福清市,,350100,fuqingshi,1306
350182,长乐市,,350100,changleshi,1306
350183,其它区,,350100,qitaqu,1306
350200,厦门市,,350000,xiamenshi,1305
350203,思明区,,350200,simingqu,1321
350205,海沧区,,350200,haicangqu,1321
350206,湖里区,,350200,huliqu,1321
350211,集美区,,350200,jimeiqu,1321
350212,同安区,,350200,tonganqu,1321
350213,翔安区,,350200,xianganqu,1321
350214,其它区,,350200,qitaqu,1321
350300,莆田市,,350000,putianshi,1305
350302,城厢区,,350300,chengxiangqu,1329
350303,涵江区,,350300,hanjiangqu,1329
350304,荔城区,,350300,lichengqu,1329
350305,秀屿区,,350300,xiuyuqu,1329
350322,仙游县,,350300,xianyouxian,1329
350323,其它区,,350300,qitaqu,1329
350400,三明市,,350000,sanmingshi,1305
350402,梅列区,,350400,meiliequ,1336
350403,三元区,,350400,sanyuanqu,1336
350421,明溪县,,350400,mingxixian,1336
350423,清流县,,350400,qingliuxian,1336
350424,宁化县,,350400,ninghuaxian,1336
350425,大田县,,350400,datianxian,1336
350426,尤溪县,,350400,youxixian,1336
350427,沙县,,350400,shaxian,1336
350428,将乐县,,350400,jianglexian,1336
350429,泰宁县,,350400,tainingxian,1336
350430,建宁县,,350400,jianningxian,1336
350481,永安市,,350400,yonganshi,1336
350482,其它区,,350400,qitaqu,1336
350500,泉州市,,350000,quanzhoushi,1305
350502,鲤城区,,350500,lichengqu,1350
350503,丰泽区,,350500,fengzequ,1350
350504,洛江区,,350500,luojiangqu,1350
350505,泉港区,,350500,quangangqu,1350
350521,惠安县,,350500,huianxian,1350
350524,安溪县,,350500,anxixian,1350
350525,永春县,,350500,yongchunxian,1350
350526,德化县,,350500,dehuaxian,1350
350527,金门县,,350500,jinmenxian,1350
350581,石狮市,,350500,shishishi,1350
350582,晋江市,,350500,jinjiangshi,1350
350583,南安市,,350500,nananshi,1350
350584,其它区,,350500,qitaqu,1350
350600,漳州市,,350000,zhangzhoushi,1305
350602,芗城区,,350600,chengqu,1364
350603,龙文区,,350600,longwenqu,1364
350622,云霄县,,350600,yunxiaoxian,1364
350623,漳浦县,,350600,zhangpuxian,1364
350624,诏安县,,350600,anxian,1364
350625,长泰县,,350600,changtaixian,1364
350626,东山县,,350600,dongshanxian,1364
350627,南靖县,,350600,nanjingxian,1364
350628,平和县,,350600,pinghexian,1364
350629,华安县,,350600,huaanxian,1364
350681,龙海市,,350600,longhaishi,1364
350682,其它区,,350600,qitaqu,1364
350700,南平市,,350000,nanpingshi,1305
350702,延平区,,350700,yanpingqu,1377
350721,顺昌县,,350700,shunchangxian,1377
350722,浦城县,,350700,puchengxian,1377
350723,光泽县,,350700,guangzexian,1377
350724,松溪县,,350700,songxixian,1377
350725,政和县,,350700,zhenghexian,1377
350781,邵武市,,350700,shaowushi,1377
350782,武夷山市,,350700,wuyishanshi,1377
350783,建瓯市,,350700,jianshi,1377
350784,建阳市,,350700,jianyangshi,1377
350785,其它区,,350700,qitaqu,1377
350800,龙岩市,,350000,longyanshi,1305
350802,新罗区,,350800,xinluoqu,1389
350821,长汀县,,350800,changtingxian,1389
350822,永定县,,350800,yongdingxian,1389
350823,上杭县,,350800,shanghangxian,1389
350824,武平县,,350800,wupingxian,1389
350825,连城县,,350800,lianchengxian,1389
350881,漳平市,,350800,zhangpingshi,1389
350882,其它区,,350800,qitaqu,1389
350900,宁德市,,350000,ningdeshi,1305
350902,蕉城区,,350900,jiaochengqu,1398
350921,霞浦县,,350900,xiapuxian,1398
350922,古田县,,350900,gutianxian,1398
350923,屏南县,,350900,pingnanxian,1398
350924,寿宁县,,350900,shouningxian,1398
350925,周宁县,,350900,zhouningxian,1398
350926,柘荣县,,350900,rongxian,1398
350981,福安市,,350900,fuanshi,1398
350982,福鼎市,,350900,fudingshi,1398
350983,其它区,,350900,qitaqu,1398
360000,江西省,赣,0,jiangxisheng,null
360100,南昌市,,360000,nanchangshi,1409
360102,东湖区,,360100,donghuqu,1410
360103,西湖区,,360100,xihuqu,1410
360104,青云谱区,,360100,qingyunpuqu,1410
360105,湾里区,,360100,wanliqu,1410
360111,青山湖区,,360100,qingshanhuqu,1410
360121,南昌县,,360100,nanchangxian,1410
360122,新建县,,360100,xinjianxian,1410
360123,安义县,,360100,anyixian,1410
360124,进贤县,,360100,jinxianxian,1410
360125,红谷滩新区,,360100,honggutanxinqu,1410
360126,经济技术开发区,,360100,jingjijishukaifaqu,1410
360127,昌北区,,360100,changbeiqu,1410
360128,其它区,,360100,qitaqu,1410
360200,景德镇市,,360000,jingdezhenshi,1409
360202,昌江区,,360200,changjiangqu,1424
360203,珠山区,,360200,zhushanqu,1424
360222,浮梁县,,360200,fuliangxian,1424
360281,乐平市,,360200,lepingshi,1424
360282,其它区,,360200,qitaqu,1424
360300,萍乡市,,360000,pingxiangshi,1409
360302,安源区,,360300,anyuanqu,1430
360313,湘东区,,360300,xiangdongqu,1430
360321,莲花县,,360300,lianhuaxian,1430
360322,上栗县,,360300,shanglixian,1430
360323,芦溪县,,360300,luxixian,1430
360324,其它区,,360300,qitaqu,1430
360400,九江市,,360000,jiujiangshi,1409
360402,庐山区,,360400,lushanqu,1437
360403,浔阳区,,360400,yangqu,1437
360421,九江县,,360400,jiujiangxian,1437
360423,武宁县,,360400,wuningxian,1437
360424,修水县,,360400,xiushuixian,1437
360425,永修县,,360400,yongxiuxian,1437
360426,德安县,,360400,deanxian,1437
360427,星子县,,360400,xingzixian,1437
360428,都昌县,,360400,duchangxian,1437
360429,湖口县,,360400,hukouxian,1437
360430,彭泽县,,360400,pengzexian,1437
360481,瑞昌市,,360400,ruichangshi,1437
360482,其它区,,360400,qitaqu,1437
360500,新余市,,360000,xinyushi,1409
360502,渝水区,,360500,yushuiqu,1451
360521,分宜县,,360500,fenyixian,1451
360522,其它区,,360500,qitaqu,1451
360600,鹰潭市,,360000,yingtanshi,1409
360602,月湖区,,360600,yuehuqu,1455
360622,余江县,,360600,yujiangxian,1455
360681,贵溪市,,360600,guixishi,1455
360682,其它区,,360600,qitaqu,1455
360700,赣州市,,360000,ganzhoushi,1409
360702,章贡区,,360700,zhanggongqu,1460
360721,赣县,,360700,ganxian,1460
360722,信丰县,,360700,xinfengxian,1460
360723,大余县,,360700,dayuxian,1460
360724,上犹县,,360700,shangyouxian,1460
360725,崇义县,,360700,chongyixian,1460
360726,安远县,,360700,anyuanxian,1460
360727,龙南县,,360700,longnanxian,1460
360728,定南县,,360700,dingnanxian,1460
360729,全南县,,360700,quannanxian,1460
360730,宁都县,,360700,ningduxian,1460
360731,于都县,,360700,yuduxian,1460
360732,兴国县,,360700,xingguoxian,1460
360733,会昌县,,360700,huichangxian,1460
360734,寻乌县,,360700,xunwuxian,1460
360735,石城县,,360700,shichengxian,1460
360751,黄金区,,360700,huangjinqu,1460
360781,瑞金市,,360700,ruijinshi,1460
360782,南康市,,360700,nankangshi,1460
360783,其它区,,360700,qitaqu,1460
360800,吉安市,,360000,jianshi,1409
360802,吉州区,,360800,jizhouqu,1481
360803,青原区,,360800,qingyuanqu,1481
360821,吉安县,,360800,jianxian,1481
360822,吉水县,,360800,jishuixian,1481
360823,峡江县,,360800,xiajiangxian,1481
360824,新干县,,360800,xinganxian,1481
360825,永丰县,,360800,yongfengxian,1481
360826,泰和县,,360800,taihexian,1481
360827,遂川县,,360800,suichuanxian,1481
360828,万安县,,360800,wananxian,1481
360829,安福县,,360800,anfuxian,1481
360830,永新县,,360800,yongxinxian,1481
360881,井冈山市,,360800,jinggangshanshi,1481
360882,其它区,,360800,qitaqu,1481
360900,宜春市,,360000,yichunshi,1409
360902,袁州区,,360900,yuanzhouqu,1496
360921,奉新县,,360900,fengxinxian,1496
360922,万载县,,360900,wanzaixian,1496
360923,上高县,,360900,shanggaoxian,1496
360924,宜丰县,,360900,yifengxian,1496
360925,靖安县,,360900,jinganxian,1496
360926,铜鼓县,,360900,tongguxian,1496
360981,丰城市,,360900,fengchengshi,1496
360982,樟树市,,360900,zhangshushi,1496
360983,高安市,,360900,gaoanshi,1496
360984,其它区,,360900,qitaqu,1496
361000,抚州市,,360000,fuzhoushi,1409
361002,临川区,,361000,linchuanqu,1508
361021,南城县,,361000,nanchengxian,1508
361022,黎川县,,361000,lichuanxian,1508
361023,南丰县,,361000,nanfengxian,1508
361024,崇仁县,,361000,chongrenxian,1508
361025,乐安县,,361000,leanxian,1508
361026,宜黄县,,361000,yihuangxian,1508
361027,金溪县,,361000,jinxixian,1508
361028,资溪县,,361000,zixixian,1508
361029,东乡县,,361000,dongxiangxian,1508
361030,广昌县,,361000,guangchangxian,1508
361031,其它区,,361000,qitaqu,1508
361100,上饶市,,360000,shangraoshi,1409
361102,信州区,,361100,xinzhouqu,1521
361121,上饶县,,361100,shangraoxian,1521
361122,广丰县,,361100,guangfengxian,1521
361123,玉山县,,361100,yushanxian,1521
361124,铅山县,,361100,qianshanxian,1521
361125,横峰县,,361100,hengfengxian,1521
361126,弋阳县,,361100,yangxian,1521
361127,余干县,,361100,yuganxian,1521
361128,鄱阳县,,361100,yangxian,1521
361129,万年县,,361100,wannianxian,1521
361130,婺源县,,361100,yuanxian,1521
361181,德兴市,,361100,dexingshi,1521
361182,其它区,,361100,qitaqu,1521
370000,山东省,鲁,0,shandongsheng,null
370100,济南市,,370000,jinanshi,1535
370102,历下区,,370100,lixiaqu,1536
370103,市中区,,370100,shizhongqu,1536
370104,槐荫区,,370100,huaiyinqu,1536
370105,天桥区,,370100,tianqiaoqu,1536
370112,历城区,,370100,lichengqu,1536
370113,长清区,,370100,changqingqu,1536
370124,平阴县,,370100,pingyinxian,1536
370125,济阳县,,370100,jiyangxian,1536
370126,商河县,,370100,shanghexian,1536
370181,章丘市,,370100,zhangqiushi,1536
370182,其它区,,370100,qitaqu,1536
370200,青岛市,,370000,qingdaoshi,1535
370202,市南区,,370200,shinanqu,1548
370203,市北区,,370200,shibeiqu,1548
370205,四方区,,370200,sifangqu,1548
370211,黄岛区,,370200,huangdaoqu,1548
370212,崂山区,,370200,shanqu,1548
370213,李沧区,,370200,licangqu,1548
370214,城阳区,,370200,chengyangqu,1548
370251,开发区,,370200,kaifaqu,1548
370281,胶州市,,370200,jiaozhoushi,1548
370282,即墨市,,370200,jimoshi,1548
370283,平度市,,370200,pingdushi,1548
370284,胶南市,,370200,jiaonanshi,1548
370285,莱西市,,370200,laixishi,1548
370286,其它区,,370200,qitaqu,1548
370300,淄博市,,370000,ziboshi,1535
370302,淄川区,,370300,zichuanqu,1563
370303,张店区,,370300,zhangdianqu,1563
370304,博山区,,370300,boshanqu,1563
370305,临淄区,,370300,linziqu,1563
370306,周村区,,370300,zhoucunqu,1563
370321,桓台县,,370300,huantaixian,1563
370322,高青县,,370300,gaoqingxian,1563
370323,沂源县,,370300,yiyuanxian,1563
370324,其它区,,370300,qitaqu,1563
370400,枣庄市,,370000,zaozhuangshi,1535
370402,市中区,,370400,shizhongqu,1573
370403,薛城区,,370400,xuechengqu,1573
370404,峄城区,,370400,chengqu,1573
370405,台儿庄区,,370400,taierzhuangqu,1573
370406,山亭区,,370400,shantingqu,1573
370481,滕州市,,370400,zhoushi,1573
370482,其它区,,370400,qitaqu,1573
370500,东营市,,370000,dongyingshi,1535
370502,东营区,,370500,dongyingqu,1581
370503,河口区,,370500,hekouqu,1581
370521,垦利县,,370500,kenlixian,1581
370522,利津县,,370500,lijinxian,1581
370523,广饶县,,370500,guangraoxian,1581
370589,西城区,,370500,xichengqu,1581
370590,东城区,,370500,dongchengqu,1581
370591,其它区,,370500,qitaqu,1581
370600,烟台市,,370000,yantaishi,1535
370602,芝罘区,,370600,zhiqu,1590
370611,福山区,,370600,fushanqu,1590
370612,牟平区,,370600,moupingqu,1590
370613,莱山区,,370600,laishanqu,1590
370634,长岛县,,370600,changdaoxian,1590
370681,龙口市,,370600,longkoushi,1590
370682,莱阳市,,370600,laiyangshi,1590
370683,莱州市,,370600,laizhoushi,1590
370684,蓬莱市,,370600,penglaishi,1590
370685,招远市,,370600,zhaoyuanshi,1590
370686,栖霞市,,370600,qixiashi,1590
370687,海阳市,,370600,haiyangshi,1590
370688,其它区,,370600,qitaqu,1590
370700,潍坊市,,370000,weifangshi,1535
370702,潍城区,,370700,weichengqu,1604
370703,寒亭区,,370700,hantingqu,1604
370704,坊子区,,370700,fangziqu,1604
370705,奎文区,,370700,kuiwenqu,1604
370724,临朐县,,370700,linxian,1604
370725,昌乐县,,370700,changlexian,1604
370751,开发区,,370700,kaifaqu,1604
370781,青州市,,370700,qingzhoushi,1604
370782,诸城市,,370700,zhuchengshi,1604
370783,寿光市,,370700,shouguangshi,1604
370784,安丘市,,370700,anqiushi,1604
370785,高密市,,370700,gaomishi,1604
370786,昌邑市,,370700,changyishi,1604
370787,其它区,,370700,qitaqu,1604
370800,济宁市,,370000,jiningshi,1535
370802,市中区,,370800,shizhongqu,1619
370811,任城区,,370800,renchengqu,1619
370826,微山县,,370800,weishanxian,1619
370827,鱼台县,,370800,yutaixian,1619
370828,金乡县,,370800,jinxiangxian,1619
370829,嘉祥县,,370800,jiaxiangxian,1619
370830,汶上县,,370800,shangxian,1619
370831,泗水县,,370800,shuixian,1619
370832,梁山县,,370800,liangshanxian,1619
370881,曲阜市,,370800,qufushi,1619
370882,兖州市,,370800,zhoushi,1619
370883,邹城市,,370800,zouchengshi,1619
370884,其它区,,370800,qitaqu,1619
370900,泰安市,,370000,taianshi,1535
370902,泰山区,,370900,taishanqu,1633
370903,岱岳区,,370900,yuequ,1633
370921,宁阳县,,370900,ningyangxian,1633
370923,东平县,,370900,dongpingxian,1633
370982,新泰市,,370900,xintaishi,1633
370983,肥城市,,370900,feichengshi,1633
370984,其它区,,370900,qitaqu,1633
371000,威海市,,370000,weihaishi,1535
371002,环翠区,,371000,huancuiqu,1641
371081,文登市,,371000,wendengshi,1641
371082,荣成市,,371000,rongchengshi,1641
371083,乳山市,,371000,rushanshi,1641
371084,其它区,,371000,qitaqu,1641
371100,日照市,,370000,rizhaoshi,1535
371102,东港区,,371100,donggangqu,1647
371103,岚山区,,371100,shanqu,1647
371121,五莲县,,371100,wulianxian,1647
371122,莒县,,371100,xian,1647
371123,其它区,,371100,qitaqu,1647
371200,莱芜市,,370000,laiwushi,1535
371202,莱城区,,371200,laichengqu,1653
371203,钢城区,,371200,gangchengqu,1653
371204,其它区,,371200,qitaqu,1653
371300,临沂市,,370000,linyishi,1535
371302,兰山区,,371300,lanshanqu,1657
371311,罗庄区,,371300,luozhuangqu,1657
371312,河东区,,371300,hedongqu,1657
371321,沂南县,,371300,yinanxian,1657
371322,郯城县,,371300,chengxian,1657
371323,沂水县,,371300,yishuixian,1657
371324,苍山县,,371300,cangshanxian,1657
371325,费县,,371300,feixian,1657
371326,平邑县,,371300,pingyixian,1657
371327,莒南县,,371300,nanxian,1657
371328,蒙阴县,,371300,mengyinxian,1657
371329,临沭县,,371300,linxian,1657
371330,其它区,,371300,qitaqu,1657
371400,德州市,,370000,dezhoushi,1535
371402,德城区,,371400,dechengqu,1671
371421,陵县,,371400,lingxian,1671
371422,宁津县,,371400,ningjinxian,1671
371423,庆云县,,371400,qingyunxian,1671
371424,临邑县,,371400,linyixian,1671
371425,齐河县,,371400,qihexian,1671
371426,平原县,,371400,pingyuanxian,1671
371427,夏津县,,371400,xiajinxian,1671
371428,武城县,,371400,wuchengxian,1671
371451,开发区,,371400,kaifaqu,1671
371481,乐陵市,,371400,lelingshi,1671
371482,禹城市,,371400,yuchengshi,1671
371483,其它区,,371400,qitaqu,1671
371500,聊城市,,370000,liaochengshi,1535
371502,东昌府区,,371500,dongchangfuqu,1685
371521,阳谷县,,371500,yangguxian,1685
371522,莘县,,371500,xian,1685
371523,茌平县,,371500,pingxian,1685
371524,东阿县,,371500,dongaxian,1685
371525,冠县,,371500,guanxian,1685
371526,高唐县,,371500,gaotangxian,1685
371581,临清市,,371500,linqingshi,1685
371582,其它区,,371500,qitaqu,1685
371600,滨州市,,370000,binzhoushi,1535
371602,滨城区,,371600,binchengqu,1695
371621,惠民县,,371600,huiminxian,1695
371622,阳信县,,371600,yangxinxian,1695
371623,无棣县,,371600,wuxian,1695
371624,沾化县,,371600,zhanhuaxian,1695
371625,博兴县,,371600,boxingxian,1695
371626,邹平县,,371600,zoupingxian,1695
371627,其它区,,371600,qitaqu,1695
371700,菏泽市,,370000,hezeshi,1535
371702,牡丹区,,371700,mudanqu,1704
371721,曹县,,371700,caoxian,1704
371722,单县,,371700,danxian,1704
371723,成武县,,371700,chengwuxian,1704
371724,巨野县,,371700,juyexian,1704
371725,郓城县,,371700,chengxian,1704
371726,鄄城县,,371700,chengxian,1704
371727,定陶县,,371700,dingtaoxian,1704
371728,东明县,,371700,dongmingxian,1704
371729,其它区,,371700,qitaqu,1704
410000,河南省,豫,0,henansheng,null
410100,郑州市,,410000,zhengzhoushi,1715
410102,中原区,,410100,zhongyuanqu,1716
410103,二七区,,410100,erqiqu,1716
410104,管城回族区,,410100,guanchenghuizuqu,1716
410105,金水区,,410100,jinshuiqu,1716
410106,上街区,,410100,shangjiequ,1716
410108,惠济区,,410100,huijiqu,1716
410122,中牟县,,410100,zhongmouxian,1716
410181,巩义市,,410100,gongyishi,1716
410182,荥阳市,,410100,yangshi,1716
410183,新密市,,410100,xinmishi,1716
410184,新郑市,,410100,xinzhengshi,1716
410185,登封市,,410100,dengfengshi,1716
410186,郑东新区,,410100,zhengdongxinqu,1716
410187,高新区,,410100,gaoxinqu,1716
410188,其它区,,410100,qitaqu,1716
410200,开封市,,410000,kaifengshi,1715
410202,龙亭区,,410200,longtingqu,1732
410203,顺河回族区,,410200,shunhehuizuqu,1732
410204,鼓楼区,,410200,gulouqu,1732
410205,禹王台区,,410200,yuwangtaiqu,1732
410211,金明区,,410200,jinmingqu,1732
410221,杞县,,410200,xian,1732
410222,通许县,,410200,tongxuxian,1732
410223,尉氏县,,410200,weishixian,1732
410224,开封县,,410200,kaifengxian,1732
410225,兰考县,,410200,lankaoxian,1732
410226,其它区,,410200,qitaqu,1732
410300,洛阳市,,410000,luoyangshi,1715
410302,老城区,,410300,laochengqu,1744
410303,西工区,,410300,xigongqu,1744
410304,廛河回族区,,410300,hehuizuqu,1744
410305,涧西区,,410300,jianxiqu,1744
410306,吉利区,,410300,jiliqu,1744
410307,洛龙区,,410300,luolongqu,1744
410322,孟津县,,410300,mengjinxian,1744
410323,新安县,,410300,xinanxian,1744
410324,栾川县,,410300,chuanxian,1744
410325,嵩县,,410300,xian,1744
410326,汝阳县,,410300,ruyangxian,1744
410327,宜阳县,,410300,yiyangxian,1744
410328,洛宁县,,410300,luoningxian,1744
410329,伊川县,,410300,yichuanxian,1744
410381,偃师市,,410300,shishi,1744
410400,平顶山市,,410000,pingdingshanshi,1715
410402,新华区,,410400,xinhuaqu,1760
410403,卫东区,,410400,weidongqu,1760
410404,石龙区,,410400,shilongqu,1760
410411,湛河区,,410400,zhanhequ,1760
410421,宝丰县,,410400,baofengxian,1760
410422,叶县,,410400,yexian,1760
410423,鲁山县,,410400,lushanxian,1760
410425,郏县,,410400,xian,1760
410481,舞钢市,,410400,wugangshi,1760
410482,汝州市,,410400,ruzhoushi,1760
410483,其它区,,410400,qitaqu,1760
410500,安阳市,,410000,anyangshi,1715
410502,文峰区,,410500,wenfengqu,1772
410503,北关区,,410500,beiguanqu,1772
410505,殷都区,,410500,yinduqu,1772
410506,龙安区,,410500,longanqu,1772
410522,安阳县,,410500,anyangxian,1772
410523,汤阴县,,410500,tangyinxian,1772
410526,滑县,,410500,huaxian,1772
410527,内黄县,,410500,neihuangxian,1772
410581,林州市,,410500,linzhoushi,1772
410582,其它区,,410500,qitaqu,1772
410600,鹤壁市,,410000,hebishi,1715
410602,鹤山区,,410600,heshanqu,1783
410603,山城区,,410600,shanchengqu,1783
410611,淇滨区,,410600,binqu,1783
410621,浚县,,410600,junxian,1783
410622,淇县,,410600,xian,1783
410623,其它区,,410600,qitaqu,1783
410700,新乡市,,410000,xinxiangshi,1715
410702,红旗区,,410700,hongqiqu,1790
410703,卫滨区,,410700,weibinqu,1790
410704,凤泉区,,410700,fengquanqu,1790
410711,牧野区,,410700,muyequ,1790
410721,新乡县,,410700,xinxiangxian,1790
410724,获嘉县,,410700,huojiaxian,1790
410725,原阳县,,410700,yuanyangxian,1790
410726,延津县,,410700,yanjinxian,1790
410727,封丘县,,410700,fengqiuxian,1790
410728,长垣县,,410700,changyuanxian,1790
410781,卫辉市,,410700,weihuishi,1790
410782,辉县市,,410700,huixianshi,1790
410783,其它区,,410700,qitaqu,1790
410800,焦作市,,410000,jiaozuoshi,1715
410802,解放区,,410800,jiefangqu,1804
410803,中站区,,410800,zhongzhanqu,1804
410804,马村区,,410800,macunqu,1804
410811,山阳区,,410800,shanyangqu,1804
410821,修武县,,410800,xiuwuxian,1804
410822,博爱县,,410800,boaixian,1804
410823,武陟县,,410800,wuxian,1804
410825,温县,,410800,wenxian,1804
410881,济源市,,410000,jiyuanshi,1715
410882,沁阳市,,410800,qinyangshi,1813
410883,孟州市,,410800,mengzhoushi,1813
410884,其它区,,410800,qitaqu,1813
410900,濮阳市,,410000,yangshi,1715
410902,华龙区,,410900,hualongqu,1817
410922,清丰县,,410900,qingfengxian,1817
410923,南乐县,,410900,nanlexian,1817
410926,范县,,410900,fanxian,1817
410927,台前县,,410900,taiqianxian,1817
410928,濮阳县,,410900,yangxian,1817
410929,其它区,,410900,qitaqu,1817
411000,许昌市,,410000,xuchangshi,1715
411002,魏都区,,411000,weiduqu,1825
411023,许昌县,,411000,xuchangxian,1825
411024,鄢陵县,,411000,lingxian,1825
411025,襄城县,,411000,xiangchengxian,1825
411081,禹州市,,411000,yuzhoushi,1825
411082,长葛市,,411000,changgeshi,1825
411083,其它区,,411000,qitaqu,1825
411100,漯河市,,410000,heshi,1715
411102,源汇区,,411100,yuanhuiqu,1833
411103,郾城区,,411100,chengqu,1833
411104,召陵区,,411100,zhaolingqu,1833
411121,舞阳县,,411100,wuyangxian,1833
411122,临颍县,,411100,linxian,1833
411123,其它区,,411100,qitaqu,1833
411200,三门峡市,,410000,sanmenxiashi,1715
411202,湖滨区,,411200,hubinqu,1840
411221,渑池县,,411200,chixian,1840
411222,陕县,,411200,shanxian,1840
411224,卢氏县,,411200,lushixian,1840
411281,义马市,,411200,yimashi,1840
411282,灵宝市,,411200,lingbaoshi,1840
411283,其它区,,411200,qitaqu,1840
411300,南阳市,,410000,nanyangshi,1715
411302,宛城区,,411300,wanchengqu,1848
411303,卧龙区,,411300,wolongqu,1848
411321,南召县,,411300,nanzhaoxian,1848
411322,方城县,,411300,fangchengxian,1848
411323,西峡县,,411300,xixiaxian,1848
411324,镇平县,,411300,zhenpingxian,1848
411325,内乡县,,411300,neixiangxian,1848
411326,淅川县,,411300,chuanxian,1848
411327,社旗县,,411300,sheqixian,1848
411328,唐河县,,411300,tanghexian,1848
411329,新野县,,411300,xinyexian,1848
411330,桐柏县,,411300,tongbaixian,1848
411381,邓州市,,411300,dengzhoushi,1848
411382,其它区,,411300,qitaqu,1848
411400,商丘市,,410000,shangqiushi,1715
411402,梁园区,,411400,liangyuanqu,1863
411403,睢阳区,,411400,yangqu,1863
411421,民权县,,411400,minquanxian,1863
411422,睢县,,411400,xian,1863
411423,宁陵县,,411400,ninglingxian,1863
411424,柘城县,,411400,chengxian,1863
411425,虞城县,,411400,yuchengxian,1863
411426,夏邑县,,411400,xiayixian,1863
411481,永城市,,411400,yongchengshi,1863
411482,其它区,,411400,qitaqu,1863
411500,信阳市,,410000,xinyangshi,1715
411502,浉河区,,411500,,1874
411503,平桥区,,411500,pingqiaoqu,1874
411521,罗山县,,411500,luoshanxian,1874
411522,光山县,,411500,guangshanxian,1874
411523,新县,,411500,xinxian,1874
411524,商城县,,411500,shangchengxian,1874
411525,固始县,,411500,gushixian,1874
411526,潢川县,,411500,chuanxian,1874
411527,淮滨县,,411500,huaibinxian,1874
411528,息县,,411500,xixian,1874
411529,其它区,,411500,qitaqu,1874
411600,周口市,,410000,zhoukoushi,1715
411602,川汇区,,411600,chuanhuiqu,1886
411621,扶沟县,,411600,fugouxian,1886
411622,西华县,,411600,xihuaxian,1886
411623,商水县,,411600,shangshuixian,1886
411624,沈丘县,,411600,shenqiuxian,1886
411625,郸城县,,411600,danchengxian,1886
411626,淮阳县,,411600,huaiyangxian,1886
411627,太康县,,411600,taikangxian,1886
411628,鹿邑县,,411600,luyixian,1886
411681,项城市,,411600,xiangchengshi,1886
411682,其它区,,411600,qitaqu,1886
411700,驻马店市,,410000,zhumadianshi,1715
411702,驿城区,,411700,chengqu,1898
411721,西平县,,411700,xipingxian,1898
411722,上蔡县,,411700,shangcaixian,1898
411723,平舆县,,411700,pingyuxian,1898
411724,正阳县,,411700,zhengyangxian,1898
411725,确山县,,411700,queshanxian,1898
411726,泌阳县,,411700,miyangxian,1898
411727,汝南县,,411700,runanxian,1898
411728,遂平县,,411700,suipingxian,1898
411729,新蔡县,,411700,xincaixian,1898
411730,其它区,,411700,qitaqu,1898
420000,湖北省,鄂,0,hubeisheng,null
420100,武汉市,,420000,wuhanshi,1910
420102,江岸区,,420100,jianganqu,1911
420103,江汉区,,420100,jianghanqu,1911
420104,硚口区,,420100,,1911
420105,汉阳区,,420100,hanyangqu,1911
420106,武昌区,,420100,wuchangqu,1911
420107,青山区,,420100,qingshanqu,1911
420111,洪山区,,420100,hongshanqu,1911
420112,东西湖区,,420100,dongxihuqu,1911
420113,汉南区,,420100,hannanqu,1911
420114,蔡甸区,,420100,caidianqu,1911
420115,江夏区,,420100,jiangxiaqu,1911
420116,黄陂区,,420100,huangqu,1911
420117,新洲区,,420100,xinzhouqu,1911
420118,其它区,,420100,qitaqu,1911
420200,黄石市,,420000,huangshishi,1910
420202,黄石港区,,420200,huangshigangqu,1926
420203,西塞山区,,420200,xisaishanqu,1926
420204,下陆区,,420200,xialuqu,1926
420205,铁山区,,420200,tieshanqu,1926
420222,阳新县,,420200,yangxinxian,1926
420281,大冶市,,420200,dayeshi,1926
420282,其它区,,420200,qitaqu,1926
420300,十堰市,,420000,shiyanshi,1910
420302,茅箭区,,420300,maojianqu,1934
420303,张湾区,,420300,zhangwanqu,1934
420321,郧县,,420300,yunxian,1934
420322,郧西县,,420300,yunxixian,1934
420323,竹山县,,420300,zhushanxian,1934
420324,竹溪县,,420300,zhuxixian,1934
420325,房县,,420300,fangxian,1934
420381,丹江口市,,420300,danjiangkoushi,1934
420382,城区,,420300,chengqu,1934
420383,其它区,,420300,qitaqu,1934
420500,宜昌市,,420000,yichangshi,1910
420502,西陵区,,420500,xilingqu,1945
420503,伍家岗区,,420500,wujiagangqu,1945
420504,点军区,,420500,dianjunqu,1945
420505,猇亭区,,420500,,1945
420506,夷陵区,,420500,yilingqu,1945
420525,远安县,,420500,yuananxian,1945
420526,兴山县,,420500,xingshanxian,1945
420527,秭归县,,420500,guixian,1945
420528,长阳土家族自治县,,420500,changyangtujiazuzizhixian,1945
420529,五峰土家族自治县,,420500,wufengtujiazuzizhixian,1945
420551,葛洲坝区,,420500,gezhoubaqu,1945
420552,开发区,,420500,kaifaqu,1945
420581,宜都市,,420500,yidushi,1945
420582,当阳市,,420500,dangyangshi,1945
420583,枝江市,,420500,zhijiangshi,1945
420584,其它区,,420500,qitaqu,1945
420600,襄阳市,,420000,xiangyangshi,1910
420602,襄城区,,420600,xiangchengqu,1962
420606,樊城区,,420600,fanchengqu,1962
420607,襄州区,,420600,xiangzhouqu,1962
420624,南漳县,,420600,nanzhangxian,1962
420625,谷城县,,420600,guchengxian,1962
420626,保康县,,420600,baokangxian,1962
420682,老河口市,,420600,laohekoushi,1962
420683,枣阳市,,420600,zaoyangshi,1962
420684,宜城市,,420600,yichengshi,1962
420685,其它区,,420600,qitaqu,1962
420700,鄂州市,,420000,ezhoushi,1910
420702,梁子湖区,,420700,liangzihuqu,1973
420703,华容区,,420700,huarongqu,1973
420704,鄂城区,,420700,echengqu,1973
420705,其它区,,420700,qitaqu,1973
420800,荆门市,,420000,jingmenshi,1910
420802,东宝区,,420800,dongbaoqu,1978
420804,掇刀区,,420800,duodaoqu,1978
420821,京山县,,420800,jingshanxian,1978
420822,沙洋县,,420800,shayangxian,1978
420881,钟祥市,,420800,zhongxiangshi,1978
420882,其它区,,420800,qitaqu,1978
420900,孝感市,,420000,xiaoganshi,1910
420902,孝南区,,420900,xiaonanqu,1985
420921,孝昌县,,420900,xiaochangxian,1985
420922,大悟县,,420900,dawuxian,1985
420923,云梦县,,420900,yunmengxian,1985
420981,应城市,,420900,yingchengshi,1985
420982,安陆市,,420900,anlushi,1985
420984,汉川市,,420900,hanchuanshi,1985
420985,其它区,,420900,qitaqu,1985
421000,荆州市,,420000,jingzhoushi,1910
421002,沙市区,,421000,shashiqu,1994
421003,荆州区,,421000,jingzhouqu,1994
421022,公安县,,421000,gonganxian,1994
421023,监利县,,421000,jianlixian,1994
421024,江陵县,,421000,jianglingxian,1994
421081,石首市,,421000,shishoushi,1994
421083,洪湖市,,421000,honghushi,1994
421087,松滋市,,421000,songzishi,1994
421088,其它区,,421000,qitaqu,1994
421100,黄冈市,,420000,huanggangshi,1910
421102,黄州区,,421100,huangzhouqu,2004
421121,团风县,,421100,tuanfengxian,2004
421122,红安县,,421100,honganxian,2004
421123,罗田县,,421100,luotianxian,2004
421124,英山县,,421100,yingshanxian,2004
421125,浠水县,,421100,shuixian,2004
421126,蕲春县,,421100,chunxian,2004
421127,黄梅县,,421100,huangmeixian,2004
421181,麻城市,,421100,machengshi,2004
421182,武穴市,,421100,wuxueshi,2004
421183,其它区,,421100,qitaqu,2004
421200,咸宁市,,420000,xianningshi,1910
421202,咸安区,,421200,xiananqu,2016
421221,嘉鱼县,,421200,jiayuxian,2016
421222,通城县,,421200,tongchengxian,2016
421223,崇阳县,,421200,chongyangxian,2016
421224,通山县,,421200,tongshanxian,2016
421281,赤壁市,,421200,chibishi,2016
421282,温泉城区,,421200,wenquanchengqu,2016
421283,其它区,,421200,qitaqu,2016
421300,随州市,,420000,suizhoushi,1910
421302,曾都区,,421300,zengduqu,2025
421321,随县,,421300,suixian,2025
421381,广水市,,421300,guangshuishi,2025
421382,其它区,,421300,qitaqu,2025
422800,恩施土家族苗族自治州,,420000,enshitujiazumiaozuzizhizhou,1910
422801,恩施市,,422800,enshishi,2030
422802,利川市,,422800,lichuanshi,2030
422822,建始县,,422800,jianshixian,2030
422823,巴东县,,422800,badongxian,2030
422825,宣恩县,,422800,xuanenxian,2030
422826,咸丰县,,422800,xianfengxian,2030
422827,来凤县,,422800,laifengxian,2030
422828,鹤峰县,,422800,hefengxian,2030
422829,其它区,,422800,qitaqu,2030
429004,仙桃市,,420000,xiantaoshi,1910
429005,潜江市,,420000,qianjiangshi,1910
429006,天门市,,420000,tianmenshi,1910
429021,神农架林区,,420000,shennongjialinqu,1910
430000,湖南省,湘,0,hunansheng,null
430100,长沙市,,430000,changshashi,2044
430102,芙蓉区,,430100,rongqu,2045
430103,天心区,,430100,tianxinqu,2045
430104,岳麓区,,430100,yueluqu,2045
430105,开福区,,430100,kaifuqu,2045
430111,雨花区,,430100,yuhuaqu,2045
430121,长沙县,,430100,changshaxian,2045
430122,望城县,,430100,wangchengxian,2045
430124,宁乡县,,430100,ningxiangxian,2045
430181,浏阳市,,430100,yangshi,2045
430182,其它区,,430100,qitaqu,2045
430200,株洲市,,430000,zhuzhoushi,2044
430202,荷塘区,,430200,hetangqu,2056
430203,芦淞区,,430200,luqu,2056
430204,石峰区,,430200,shifengqu,2056
430211,天元区,,430200,tianyuanqu,2056
430221,株洲县,,430200,zhuzhouxian,2056
430223,攸县,,430200,xian,2056
430224,茶陵县,,430200,chalingxian,2056
430225,炎陵县,,430200,yanlingxian,2056
430281,醴陵市,,430200,lingshi,2056
430282,其它区,,430200,qitaqu,2056
430300,湘潭市,,430000,xiangtanshi,2044
430302,雨湖区,,430300,yuhuqu,2067
430304,岳塘区,,430300,yuetangqu,2067
430321,湘潭县,,430300,xiangtanxian,2067
430381,湘乡市,,430300,xiangxiangshi,2067
430382,韶山市,,430300,shaoshanshi,2067
430383,其它区,,430300,qitaqu,2067
430400,衡阳市,,430000,hengyangshi,2044
430405,珠晖区,,430400,zhuqu,2074
430406,雁峰区,,430400,yanfengqu,2074
430407,石鼓区,,430400,shiguqu,2074
430408,蒸湘区,,430400,zhengxiangqu,2074
430412,南岳区,,430400,nanyuequ,2074
430421,衡阳县,,430400,hengyangxian,2074
430422,衡南县,,430400,hengnanxian,2074
430423,衡山县,,430400,hengshanxian,2074
430424,衡东县,,430400,hengdongxian,2074
430426,祁东县,,430400,qidongxian,2074
430481,耒阳市,,430400,yangshi,2074
430482,常宁市,,430400,changningshi,2074
430483,其它区,,430400,qitaqu,2074
430500,邵阳市,,430000,shaoyangshi,2044
430502,双清区,,430500,shuangqingqu,2088
430503,大祥区,,430500,daxiangqu,2088
430511,北塔区,,430500,beitaqu,2088
430521,邵东县,,430500,shaodongxian,2088
430522,新邵县,,430500,xinshaoxian,2088
430523,邵阳县,,430500,shaoyangxian,2088
430524,隆回县,,430500,longhuixian,2088
430525,洞口县,,430500,dongkouxian,2088
430527,绥宁县,,430500,suiningxian,2088
430528,新宁县,,430500,xinningxian,2088
430529,城步苗族自治县,,430500,chengbumiaozuzizhixian,2088
430581,武冈市,,430500,wugangshi,2088
430582,其它区,,430500,qitaqu,2088
430600,岳阳市,,430000,yueyangshi,2044
430602,岳阳楼区,,430600,yueyanglouqu,2102
430603,云溪区,,430600,yunxiqu,2102
430611,君山区,,430600,junshanqu,2102
430621,岳阳县,,430600,yueyangxian,2102
430623,华容县,,430600,huarongxian,2102
430624,湘阴县,,430600,xiangyinxian,2102
430626,平江县,,430600,pingjiangxian,2102
430681,汨罗市,,430600,luoshi,2102
430682,临湘市,,430600,linxiangshi,2102
430683,其它区,,430600,qitaqu,2102
430700,常德市,,430000,changdeshi,2044
430702,武陵区,,430700,wulingqu,2113
430703,鼎城区,,430700,dingchengqu,2113
430721,安乡县,,430700,anxiangxian,2113
430722,汉寿县,,430700,hanshouxian,2113
430723,澧县,,430700,xian,2113
430724,临澧县,,430700,linxian,2113
430725,桃源县,,430700,taoyuanxian,2113
430726,石门县,,430700,shimenxian,2113
430781,津市市,,430700,jinshishi,2113
430782,其它区,,430700,qitaqu,2113
430800,张家界市,,430000,zhangjiajieshi,2044
430802,永定区,,430800,yongdingqu,2124
430811,武陵源区,,430800,wulingyuanqu,2124
430821,慈利县,,430800,cilixian,2124
430822,桑植县,,430800,sangzhixian,2124
430823,其它区,,430800,qitaqu,2124
430900,益阳市,,430000,yiyangshi,2044
430902,资阳区,,430900,ziyangqu,2130
430903,赫山区,,430900,heshanqu,2130
430921,南县,,430900,nanxian,2130
430922,桃江县,,430900,taojiangxian,2130
430923,安化县,,430900,anhuaxian,2130
430981,沅江市,,430900,jiangshi,2130
430982,其它区,,430900,qitaqu,2130
431000,郴州市,,430000,chenzhoushi,2044
431002,北湖区,,431000,beihuqu,2138
431003,苏仙区,,431000,suxianqu,2138
431021,桂阳县,,431000,guiyangxian,2138
431022,宜章县,,431000,yizhangxian,2138
431023,永兴县,,431000,yongxingxian,2138
431024,嘉禾县,,431000,jiahexian,2138
431025,临武县,,431000,linwuxian,2138
431026,汝城县,,431000,ruchengxian,2138
431027,桂东县,,431000,guidongxian,2138
431028,安仁县,,431000,anrenxian,2138
431081,资兴市,,431000,zixingshi,2138
431082,其它区,,431000,qitaqu,2138
431100,永州市,,430000,yongzhoushi,2044
431102,零陵区,,431100,linglingqu,2151
431103,冷水滩区,,431100,lengshuitanqu,2151
431121,祁阳县,,431100,qiyangxian,2151
431122,东安县,,431100,donganxian,2151
431123,双牌县,,431100,shuangpaixian,2151
431124,道县,,431100,daoxian,2151
431125,江永县,,431100,jiangyongxian,2151
431126,宁远县,,431100,ningyuanxian,2151
431127,蓝山县,,431100,lanshanxian,2151
431128,新田县,,431100,xintianxian,2151
431129,江华瑶族自治县,,431100,jianghuayaozuzizhixian,2151
431130,其它区,,431100,qitaqu,2151
431200,怀化市,,430000,huaihuashi,2044
431202,鹤城区,,431200,hechengqu,2164
431221,中方县,,431200,zhongfangxian,2164
431222,沅陵县,,431200,lingxian,2164
431223,辰溪县,,431200,chenxixian,2164
431224,溆浦县,,431200,puxian,2164
431225,会同县,,431200,huitongxian,2164
431226,麻阳苗族自治县,,431200,mayangmiaozuzizhixian,2164
431227,新晃侗族自治县,,431200,xinhuangdongzuzizhixian,2164
431228,芷江侗族自治县,,431200,jiangdongzuzizhixian,2164
431229,靖州苗族侗族自治县,,431200,jingzhoumiaozudongzuzizhixian,2164
431230,通道侗族自治县,,431200,tongdaodongzuzizhixian,2164
431281,洪江市,,431200,hongjiangshi,2164
431282,其它区,,431200,qitaqu,2164
431300,娄底市,,430000,loudishi,2044
431302,娄星区,,431300,louxingqu,2178
431321,双峰县,,431300,shuangfengxian,2178
431322,新化县,,431300,xinhuaxian,2178
431381,冷水江市,,431300,lengshuijiangshi,2178
431382,涟源市,,431300,lianyuanshi,2178
431383,其它区,,431300,qitaqu,2178
433100,湘西土家族苗族自治州,,430000,xiangxitujiazumiaozuzizhizhou,2044
433101,吉首市,,433100,jishoushi,2185
433122,泸溪县,,433100,xixian,2185
433123,凤凰县,,433100,fenghuangxian,2185
433124,花垣县,,433100,huayuanxian,2185
433125,保靖县,,433100,baojingxian,2185
433126,古丈县,,433100,guzhangxian,2185
433127,永顺县,,433100,yongshunxian,2185
433130,龙山县,,433100,longshanxian,2185
433131,其它区,,433100,qitaqu,2185
440000,广东省,粤,0,guangdongsheng,null
440100,广州市,,440000,guangzhoushi,2195
440103,荔湾区,,440100,liwanqu,2196
440104,越秀区,,440100,yuexiuqu,2196
440105,海珠区,,440100,haizhuqu,2196
440106,天河区,,440100,tianhequ,2196
440111,白云区,,440100,baiyunqu,2196
440112,黄埔区,,440100,huangpuqu,2196
440113,番禺区,,440100,fanqu,2196
440114,花都区,,440100,huaduqu,2196
440115,南沙区,,440100,nanshaqu,2196
440116,萝岗区,,440100,luogangqu,2196
440183,增城市,,440100,zengchengshi,2196
440184,从化市,,440100,conghuashi,2196
440188,东山区,,440100,dongshanqu,2196
440189,其它区,,440100,qitaqu,2196
440200,韶关市,,440000,shaoguanshi,2195
440203,武江区,,440200,wujiangqu,2211
440204,浈江区,,440200,jiangqu,2211
440205,曲江区,,440200,qujiangqu,2211
440222,始兴县,,440200,shixingxian,2211
440224,仁化县,,440200,renhuaxian,2211
440229,翁源县,,440200,wengyuanxian,2211
440232,乳源瑶族自治县,,440200,ruyuanyaozuzizhixian,2211
440233,新丰县,,440200,xinfengxian,2211
440281,乐昌市,,440200,lechangshi,2211
440282,南雄市,,440200,nanxiongshi,2211
440283,其它区,,440200,qitaqu,2211
440300,深圳市,,440000,shenshi,2195
440303,罗湖区,,440300,luohuqu,2223
440304,福田区,,440300,futianqu,2223
440305,南山区,,440300,nanshanqu,2223
440306,宝安区,,440300,baoanqu,2223
440307,龙岗区,,440300,longgangqu,2223
440308,盐田区,,440300,yantianqu,2223
440309,其它区,,440300,qitaqu,2223
440400,珠海市,,440000,zhuhaishi,2195
440402,香洲区,,440400,xiangzhouqu,2231
440403,斗门区,,440400,doumenqu,2231
440404,金湾区,,440400,jinwanqu,2231
440486,金唐区,,440400,jintangqu,2231
440487,南湾区,,440400,nanwanqu,2231
440488,其它区,,440400,qitaqu,2231
440500,汕头市,,440000,shantoushi,2195
440507,龙湖区,,440500,longhuqu,2238
440511,金平区,,440500,jinpingqu,2238
440512,濠江区,,440500,jiangqu,2238
440513,潮阳区,,440500,chaoyangqu,2238
440514,潮南区,,440500,chaonanqu,2238
440515,澄海区,,440500,chenghaiqu,2238
440523,南澳县,,440500,nanaoxian,2238
440524,其它区,,440500,qitaqu,2238
440600,佛山市,,440000,foshanshi,2195
440604,禅城区,,440600,chengqu,2247
440605,南海区,,440600,nanhaiqu,2247
440606,顺德区,,440600,shundequ,2247
440607,三水区,,440600,sanshuiqu,2247
440608,高明区,,440600,gaomingqu,2247
440609,其它区,,440600,qitaqu,2247
440700,江门市,,440000,jiangmenshi,2195
440703,蓬江区,,440700,pengjiangqu,2254
440704,江海区,,440700,jianghaiqu,2254
440705,新会区,,440700,xinhuiqu,2254
440781,台山市,,440700,taishanshi,2254
440783,开平市,,440700,kaipingshi,2254
440784,鹤山市,,440700,heshanshi,2254
440785,恩平市,,440700,enpingshi,2254
440786,其它区,,440700,qitaqu,2254
440800,湛江市,,440000,zhanjiangshi,2195
440802,赤坎区,,440800,chikanqu,2263
440803,霞山区,,440800,xiashanqu,2263
440804,坡头区,,440800,potouqu,2263
440811,麻章区,,440800,mazhangqu,2263
440823,遂溪县,,440800,suixixian,2263
440825,徐闻县,,440800,xuwenxian,2263
440881,廉江市,,440800,lianjiangshi,2263
440882,雷州市,,440800,leizhoushi,2263
440883,吴川市,,440800,wuchuanshi,2263
440884,其它区,,440800,qitaqu,2263
440900,茂名市,,440000,maomingshi,2195
440902,茂南区,,440900,maonanqu,2274
440903,茂港区,,440900,maogangqu,2274
440923,电白县,,440900,dianbaixian,2274
440981,高州市,,440900,gaozhoushi,2274
440982,化州市,,440900,huazhoushi,2274
440983,信宜市,,440900,xinyishi,2274
440984,其它区,,440900,qitaqu,2274
441200,肇庆市,,440000,zhaoqingshi,2195
441202,端州区,,441200,duanzhouqu,2282
441203,鼎湖区,,441200,dinghuqu,2282
441223,广宁县,,441200,guangningxian,2282
441224,怀集县,,441200,huaijixian,2282
441225,封开县,,441200,fengkaixian,2282
441226,德庆县,,441200,deqingxian,2282
441283,高要市,,441200,gaoyaoshi,2282
441284,四会市,,441200,sihuishi,2282
441285,其它区,,441200,qitaqu,2282
441300,惠州市,,440000,huizhoushi,2195
441302,惠城区,,441300,huichengqu,2292
441303,惠阳区,,441300,huiyangqu,2292
441322,博罗县,,441300,boluoxian,2292
441323,惠东县,,441300,huidongxian,2292
441324,龙门县,,441300,longmenxian,2292
441325,其它区,,441300,qitaqu,2292
441400,梅州市,,440000,meizhoushi,2195
441402,梅江区,,441400,meijiangqu,2299
441421,梅县,,441400,meixian,2299
441422,大埔县,,441400,dapuxian,2299
441423,丰顺县,,441400,fengshunxian,2299
441424,五华县,,441400,wuhuaxian,2299
441426,平远县,,441400,pingyuanxian,2299
441427,蕉岭县,,441400,jiaolingxian,2299
441481,兴宁市,,441400,xingningshi,2299
441482,其它区,,441400,qitaqu,2299
441500,汕尾市,,440000,shanweishi,2195
441502,城区,,441500,chengqu,2309
441521,海丰县,,441500,haifengxian,2309
441523,陆河县,,441500,luhexian,2309
441581,陆丰市,,441500,lufengshi,2309
441582,其它区,,441500,qitaqu,2309
441600,河源市,,440000,heyuanshi,2195
441602,源城区,,441600,yuanchengqu,2315
441621,紫金县,,441600,zijinxian,2315
441622,龙川县,,441600,longchuanxian,2315
441623,连平县,,441600,lianpingxian,2315
441624,和平县,,441600,hepingxian,2315
441625,东源县,,441600,dongyuanxian,2315
441626,其它区,,441600,qitaqu,2315
441700,阳江市,,440000,yangjiangshi,2195
441702,江城区,,441700,jiangchengqu,2323
441721,阳西县,,441700,yangxixian,2323
441723,阳东县,,441700,yangdongxian,2323
441781,阳春市,,441700,yangchunshi,2323
441782,其它区,,441700,qitaqu,2323
441800,清远市,,440000,qingyuanshi,2195
441802,清城区,,441800,qingchengqu,2329
441821,佛冈县,,441800,fogangxian,2329
441823,阳山县,,441800,yangshanxian,2329
441825,连山壮族瑶族自治县,,441800,lianshanzhuangzuyaozuzizhixian,2329
441826,连南瑶族自治县,,441800,liannanyaozuzizhixian,2329
441827,清新县,,441800,qingxinxian,2329
441881,英德市,,441800,yingdeshi,2329
441882,连州市,,441800,lianzhoushi,2329
441883,其它区,,441800,qitaqu,2329
441900,东莞市,,440000,dongshi,2195
442000,中山市,,440000,zhongshanshi,2195
445100,潮州市,,440000,chaozhoushi,2195
445102,湘桥区,,445100,xiangqiaoqu,2341
445121,潮安县,,445100,chaoanxian,2341
445122,饶平县,,445100,raopingxian,2341
445185,枫溪区,,445100,fengxiqu,2341
445186,其它区,,445100,qitaqu,2341
445200,揭阳市,,440000,jieyangshi,2195
445202,榕城区,,445200,chengqu,2347
445221,揭东县,,445200,jiedongxian,2347
445222,揭西县,,445200,jiexixian,2347
445224,惠来县,,445200,huilaixian,2347
445281,普宁市,,445200,puningshi,2347
445284,东山区,,445200,dongshanqu,2347
445285,其它区,,445200,qitaqu,2347
445300,云浮市,,440000,yunfushi,2195
445302,云城区,,445300,yunchengqu,2355
445321,新兴县,,445300,xinxingxian,2355
445322,郁南县,,445300,yunanxian,2355
445323,云安县,,445300,yunanxian,2355
445381,罗定市,,445300,luodingshi,2355
445382,其它区,,445300,qitaqu,2355
450000,广西壮族自治区,桂,0,guangxizhuangzuzizhiqu,null
450100,南宁市,,450000,nanningshi,2362
450102,兴宁区,,450100,xingningqu,2363
450103,青秀区,,450100,qingxiuqu,2363
450105,江南区,,450100,jiangnanqu,2363
450107,西乡塘区,,450100,xixiangtangqu,2363
450108,良庆区,,450100,liangqingqu,2363
450109,邕宁区,,450100,ningqu,2363
450122,武鸣县,,450100,wumingxian,2363
450123,隆安县,,450100,longanxian,2363
450124,马山县,,450100,mashanxian,2363
450125,上林县,,450100,shanglinxian,2363
450126,宾阳县,,450100,binyangxian,2363
450127,横县,,450100,hengxian,2363
450128,其它区,,450100,qitaqu,2363
450200,柳州市,,450000,liuzhoushi,2362
450202,城中区,,450200,chengzhongqu,2377
450203,鱼峰区,,450200,yufengqu,2377
450204,柳南区,,450200,liunanqu,2377
450205,柳北区,,450200,liubeiqu,2377
450221,柳江县,,450200,liujiangxian,2377
450222,柳城县,,450200,liuchengxian,2377
450223,鹿寨县,,450200,luzhaixian,2377
450224,融安县,,450200,ronganxian,2377
450225,融水苗族自治县,,450200,rongshuimiaozuzizhixian,2377
450226,三江侗族自治县,,450200,sanjiangdongzuzizhixian,2377
450227,其它区,,450200,qitaqu,2377
450300,桂林市,,450000,guilinshi,2362
450302,秀峰区,,450300,xiufengqu,2389
450303,叠彩区,,450300,diecaiqu,2389
450304,象山区,,450300,xiangshanqu,2389
450305,七星区,,450300,qixingqu,2389
450311,雁山区,,450300,yanshanqu,2389
450321,阳朔县,,450300,yangshuoxian,2389
450322,临桂县,,450300,linguixian,2389
450323,灵川县,,450300,lingchuanxian,2389
450324,全州县,,450300,quanzhouxian,2389
450325,兴安县,,450300,xinganxian,2389
450326,永福县,,450300,yongfuxian,2389
450327,灌阳县,,450300,guanyangxian,2389
450328,龙胜各族自治县,,450300,longshenggezuzizhixian,2389
450329,资源县,,450300,ziyuanxian,2389
450330,平乐县,,450300,pinglexian,2389
450331,荔浦县,,450300,lipuxian,2389
450332,恭城瑶族自治县,,450300,gongchengyaozuzizhixian,2389
450333,其它区,,450300,qitaqu,2389
450400,梧州市,,450000,wuzhoushi,2362
450403,万秀区,,450400,wanxiuqu,2408
450404,蝶山区,,450400,dieshanqu,2408
450405,长洲区,,450400,changzhouqu,2408
450421,苍梧县,,450400,cangwuxian,2408
450422,藤县,,450400,tengxian,2408
450423,蒙山县,,450400,mengshanxian,2408
450481,岑溪市,,450400,xishi,2408
450482,其它区,,450400,qitaqu,2408
450500,北海市,,450000,beihaishi,2362
450502,海城区,,450500,haichengqu,2417
450503,银海区,,450500,yinhaiqu,2417
450512,铁山港区,,450500,tieshangangqu,2417
450521,合浦县,,450500,hepuxian,2417
450522,其它区,,450500,qitaqu,2417
450600,防城港市,,450000,fangchenggangshi,2362
450602,港口区,,450600,gangkouqu,2423
450603,防城区,,450600,fangchengqu,2423
450621,上思县,,450600,shangsixian,2423
450681,东兴市,,450600,dongxingshi,2423
450682,其它区,,450600,qitaqu,2423
450700,钦州市,,450000,qinzhoushi,2362
450702,钦南区,,450700,qinnanqu,2429
450703,钦北区,,450700,qinbeiqu,2429
450721,灵山县,,450700,lingshanxian,2429
450722,浦北县,,450700,pubeixian,2429
450723,其它区,,450700,qitaqu,2429
450800,贵港市,,450000,guigangshi,2362
450802,港北区,,450800,gangbeiqu,2435
450803,港南区,,450800,gangnanqu,2435
450804,覃塘区,,450800,tangqu,2435
450821,平南县,,450800,pingnanxian,2435
450881,桂平市,,450800,guipingshi,2435
450882,其它区,,450800,qitaqu,2435
450900,玉林市,,450000,yulinshi,2362
450902,玉州区,,450900,yuzhouqu,2442
450921,容县,,450900,rongxian,2442
450922,陆川县,,450900,luchuanxian,2442
450923,博白县,,450900,bobaixian,2442
450924,兴业县,,450900,xingyexian,2442
450981,北流市,,450900,beiliushi,2442
450982,其它区,,450900,qitaqu,2442
451000,百色市,,450000,baiseshi,2362
451002,右江区,,451000,youjiangqu,2450
451021,田阳县,,451000,tianyangxian,2450
451022,田东县,,451000,tiandongxian,2450
451023,平果县,,451000,pingguoxian,2450
451024,德保县,,451000,debaoxian,2450
451025,靖西县,,451000,jingxixian,2450
451026,那坡县,,451000,napoxian,2450
451027,凌云县,,451000,lingyunxian,2450
451028,乐业县,,451000,leyexian,2450
451029,田林县,,451000,tianlinxian,2450
451030,西林县,,451000,xilinxian,2450
451031,隆林各族自治县,,451000,longlingezuzizhixian,2450
451032,其它区,,451000,qitaqu,2450
451100,贺州市,,450000,hezhoushi,2362
451102,八步区,,451100,babuqu,2464
451121,昭平县,,451100,zhaopingxian,2464
451122,钟山县,,451100,zhongshanxian,2464
451123,富川瑶族自治县,,451100,fuchuanyaozuzizhixian,2464
451124,其它区,,451100,qitaqu,2464
451200,河池市,,450000,hechishi,2362
451202,金城江区,,451200,jinchengjiangqu,2470
451221,南丹县,,451200,nandanxian,2470
451222,天峨县,,451200,tianexian,2470
451223,凤山县,,451200,fengshanxian,2470
451224,东兰县,,451200,donglanxian,2470
451225,罗城仫佬族自治县,,451200,luochenglaozuzizhixian,2470
451226,环江毛南族自治县,,451200,huanjiangmaonanzuzizhixian,2470
451227,巴马瑶族自治县,,451200,bamayaozuzizhixian,2470
451228,都安瑶族自治县,,451200,duanyaozuzizhixian,2470
451229,大化瑶族自治县,,451200,dahuayaozuzizhixian,2470
451281,宜州市,,451200,yizhoushi,2470
451282,其它区,,451200,qitaqu,2470
451300,来宾市,,450000,laibinshi,2362
451302,兴宾区,,451300,xingbinqu,2483
451321,忻城县,,451300,xinchengxian,2483
451322,象州县,,451300,xiangzhouxian,2483
451323,武宣县,,451300,wuxuanxian,2483
451324,金秀瑶族自治县,,451300,jinxiuyaozuzizhixian,2483
451381,合山市,,451300,heshanshi,2483
451382,其它区,,451300,qitaqu,2483
451400,崇左市,,450000,chongzuoshi,2362
451402,江州区,,451400,jiangzhouqu,2491
451421,扶绥县,,451400,fusuixian,2491
451422,宁明县,,451400,ningmingxian,2491
451423,龙州县,,451400,longzhouxian,2491
451424,大新县,,451400,daxinxian,2491
451425,天等县,,451400,tiandengxian,2491
451481,凭祥市,,451400,pingxiangshi,2491
451482,其它区,,451400,qitaqu,2491
460000,海南省,琼,0,hainansheng,null
460100,海口市,,460000,haikoushi,2500
460105,秀英区,,460100,xiuyingqu,2501
460106,龙华区,,460100,longhuaqu,2501
460107,琼山区,,460100,qiongshanqu,2501
460108,美兰区,,460100,meilanqu,2501
460109,其它区,,460100,qitaqu,2501
460200,三亚市,,460000,sanyashi,2500
469001,五指山市,,460000,wuzhishanshi,2500
469002,琼海市,,460000,qionghaishi,2500
469003,儋州市,,460000,zhoushi,2500
469005,文昌市,,460000,wenchangshi,2500
469006,万宁市,,460000,wanningshi,2500
469007,东方市,,460000,dongfangshi,2500
469025,定安县,,460000,dinganxian,2500
469026,屯昌县,,460000,tunchangxian,2500
469027,澄迈县,,460000,chengmaixian,2500
469028,临高县,,460000,lingaoxian,2500
469030,白沙黎族自治县,,460000,baishalizuzizhixian,2500
469031,昌江黎族自治县,,460000,changjianglizuzizhixian,2500
469033,乐东黎族自治县,,460000,ledonglizuzizhixian,2500
469034,陵水黎族自治县,,460000,lingshuilizuzizhixian,2500
469035,保亭黎族苗族自治县,,460000,baotinglizumiaozuzizhixian,2500
469036,琼中黎族苗族自治县,,460000,qiongzhonglizumiaozuzizhixian,2500
469037,西沙群岛,,460000,xishaqundao,2500
469038,南沙群岛,,460000,nanshaqundao,2500
469039,中沙群岛的岛礁及其海域,,460000,zhongshaqundaodedaojiaojiqihaiyu,2500
471004,高新区,,410300,gaoxinqu,2526
471005,其它区,,410300,qitaqu,2526
500000,重庆,渝,0,zhongqing,null
500100,重庆市,,500000,zhongqingshi,2529
500101,万州区,,500100,wanzhouqu,2530
500102,涪陵区,,500100,fulingqu,2530
500103,渝中区,,500100,yuzhongqu,2530
500104,大渡口区,,500100,dadukouqu,2530
500105,江北区,,500100,jiangbeiqu,2530
500106,沙坪坝区,,500100,shapingbaqu,2530
500107,九龙坡区,,500100,jiulongpoqu,2530
500108,南岸区,,500100,nananqu,2530
500109,北碚区,,500100,beiqu,2530
500110,万盛区,,500100,wanshengqu,2530
500111,双桥区,,500100,shuangqiaoqu,2530
500112,渝北区,,500100,yubeiqu,2530
500113,巴南区,,500100,bananqu,2530
500114,黔江区,,500100,qianjiangqu,2530
500115,长寿区,,500100,changshouqu,2530
500222,綦江县,,500100,jiangxian,2530
500223,潼南县,,500100,nanxian,2530
500224,铜梁县,,500100,tongliangxian,2530
500225,大足县,,500100,dazuxian,2530
500226,荣昌县,,500100,rongchangxian,2530
500227,璧山县,,500100,shanxian,2530
500228,梁平县,,500100,liangpingxian,2530
500229,城口县,,500100,chengkouxian,2530
500230,丰都县,,500100,fengduxian,2530
500231,垫江县,,500100,dianjiangxian,2530
500232,武隆县,,500100,wulongxian,2530
500233,忠县,,500100,zhongxian,2530
500234,开县,,500100,kaixian,2530
500235,云阳县,,500100,yunyangxian,2530
500236,奉节县,,500100,fengjiexian,2530
500237,巫山县,,500100,wushanxian,2530
500238,巫溪县,,500100,wuxixian,2530
500240,石柱土家族自治县,,500100,shizhutujiazuzizhixian,2530
500241,秀山土家族苗族自治县,,500100,xiushantujiazumiaozuzizhixian,2530
500242,酉阳土家族苗族自治县,,500100,youyangtujiazumiaozuzizhixian,2530
500243,彭水苗族土家族自治县,,500100,pengshuimiaozutujiazuzizhixian,2530
500381,江津区,,500100,jiangjinqu,2530
500382,合川区,,500100,hechuanqu,2530
500383,永川区,,500100,yongchuanqu,2530
500384,南川区,,500100,nanchuanqu,2530
500385,其它区,,500100,qitaqu,2530
510000,四川省,川,0,sichuansheng,null
510100,成都市,,510000,chengdushi,2572
510104,锦江区,,510100,jinjiangqu,2573
510105,青羊区,,510100,qingyangqu,2573
510106,金牛区,,510100,jinniuqu,2573
510107,武侯区,,510100,wuhouqu,2573
510108,成华区,,510100,chenghuaqu,2573
510112,龙泉驿区,,510100,longquanqu,2573
510113,青白江区,,510100,qingbaijiangqu,2573
510114,新都区,,510100,xinduqu,2573
510115,温江区,,510100,wenjiangqu,2573
510121,金堂县,,510100,jintangxian,2573
510122,双流县,,510100,shuangliuxian,2573
510124,郫县,,510100,xian,2573
510129,大邑县,,510100,dayixian,2573
510131,蒲江县,,510100,pujiangxian,2573
510132,新津县,,510100,xinjinxian,2573
510181,都江堰市,,510100,dujiangyanshi,2573
510182,彭州市,,510100,pengzhoushi,2573
510183,邛崃市,,510100,shi,2573
510184,崇州市,,510100,chongzhoushi,2573
510185,其它区,,510100,qitaqu,2573
510300,自贡市,,510000,zigongshi,2572
510302,自流井区,,510300,ziliujingqu,2594
510303,贡井区,,510300,gongjingqu,2594
510304,大安区,,510300,daanqu,2594
510311,沿滩区,,510300,yantanqu,2594
510321,荣县,,510300,rongxian,2594
510322,富顺县,,510300,fushunxian,2594
510323,其它区,,510300,qitaqu,2594
510400,攀枝花市,,510000,panzhihuashi,2572
510402,东区,,510400,dongqu,2602
510403,西区,,510400,xiqu,2602
510411,仁和区,,510400,renhequ,2602
510421,米易县,,510400,miyixian,2602
510422,盐边县,,510400,yanbianxian,2602
510423,其它区,,510400,qitaqu,2602
510500,泸州市,,510000,zhoushi,2572
510502,江阳区,,510500,jiangyangqu,2609
510503,纳溪区,,510500,naxiqu,2609
510504,龙马潭区,,510500,longmatanqu,2609
510521,泸县,,510500,xian,2609
510522,合江县,,510500,hejiangxian,2609
510524,叙永县,,510500,xuyongxian,2609
510525,古蔺县,,510500,guxian,2609
510526,其它区,,510500,qitaqu,2609
510600,德阳市,,510000,deyangshi,2572
510603,旌阳区,,510600,yangqu,2618
510623,中江县,,510600,zhongjiangxian,2618
510626,罗江县,,510600,luojiangxian,2618
510681,广汉市,,510600,guanghanshi,2618
510682,什邡市,,510600,shishi,2618
510683,绵竹市,,510600,mianzhushi,2618
510684,其它区,,510600,qitaqu,2618
510700,绵阳市,,510000,mianyangshi,2572
510703,涪城区,,510700,fuchengqu,2626
510704,游仙区,,510700,youxianqu,2626
510722,三台县,,510700,santaixian,2626
510723,盐亭县,,510700,yantingxian,2626
510724,安县,,510700,anxian,2626
510725,梓潼县,,510700,xian,2626
510726,北川羌族自治县,,510700,beichuanqiangzuzizhixian,2626
510727,平武县,,510700,pingwuxian,2626
510751,高新区,,510700,gaoxinqu,2626
510781,江油市,,510700,jiangyoushi,2626
510782,其它区,,510700,qitaqu,2626
510800,广元市,,510000,guangyuanshi,2572
510802,利州区,,510800,lizhouqu,2638
510811,元坝区,,510800,yuanbaqu,2638
510812,朝天区,,510800,chaotianqu,2638
510821,旺苍县,,510800,wangcangxian,2638
510822,青川县,,510800,qingchuanxian,2638
510823,剑阁县,,510800,jiangexian,2638
510824,苍溪县,,510800,cangxixian,2638
510825,其它区,,510800,qitaqu,2638
510900,遂宁市,,510000,suiningshi,2572
510903,船山区,,510900,chuanshanqu,2647
510904,安居区,,510900,anjuqu,2647
510921,蓬溪县,,510900,pengxixian,2647
510922,射洪县,,510900,shehongxian,2647
510923,大英县,,510900,dayingxian,2647
510924,其它区,,510900,qitaqu,2647
511000,内江市,,510000,neijiangshi,2572
511002,市中区,,511000,shizhongqu,2654
511011,东兴区,,511000,dongxingqu,2654
511024,威远县,,511000,weiyuanxian,2654
511025,资中县,,511000,zizhongxian,2654
511028,隆昌县,,511000,longchangxian,2654
511029,其它区,,511000,qitaqu,2654
511100,乐山市,,510000,leshanshi,2572
511102,市中区,,511100,shizhongqu,2661
511111,沙湾区,,511100,shawanqu,2661
511112,五通桥区,,511100,wutongqiaoqu,2661
511113,金口河区,,511100,jinkouhequ,2661
511123,犍为县,,511100,weixian,2661
511124,井研县,,511100,jingyanxian,2661
511126,夹江县,,511100,jiajiangxian,2661
511129,沐川县,,511100,chuanxian,2661
511132,峨边彝族自治县,,511100,ebianyizuzizhixian,2661
511133,马边彝族自治县,,511100,mabianyizuzizhixian,2661
511181,峨眉山市,,511100,emeishanshi,2661
511182,其它区,,511100,qitaqu,2661
511300,南充市,,510000,nanchongshi,2572
511302,顺庆区,,511300,shunqingqu,2674
511303,高坪区,,511300,gaopingqu,2674
511304,嘉陵区,,511300,jialingqu,2674
511321,南部县,,511300,nanbuxian,2674
511322,营山县,,511300,yingshanxian,2674
511323,蓬安县,,511300,penganxian,2674
511324,仪陇县,,511300,yilongxian,2674
511325,西充县,,511300,xichongxian,2674
511381,阆中市,,511300,zhongshi,2674
511382,其它区,,511300,qitaqu,2674
511400,眉山市,,510000,meishanshi,2572
511402,东坡区,,511400,dongpoqu,2685
511421,仁寿县,,511400,renshouxian,2685
511422,彭山县,,511400,pengshanxian,2685
511423,洪雅县,,511400,hongyaxian,2685
511424,丹棱县,,511400,danlengxian,2685
511425,青神县,,511400,qingshenxian,2685
511426,其它区,,511400,qitaqu,2685
511500,宜宾市,,510000,yibinshi,2572
511502,翠屏区,,511500,cuipingqu,2693
511521,宜宾县,,511500,yibinxian,2693
511522,南溪县,,511500,nanxixian,2693
511523,江安县,,511500,jianganxian,2693
511524,长宁县,,511500,changningxian,2693
511525,高县,,511500,gaoxian,2693
511526,珙县,,511500,xian,2693
511527,筠连县,,511500,lianxian,2693
511528,兴文县,,511500,xingwenxian,2693
511529,屏山县,,511500,pingshanxian,2693
511530,其它区,,511500,qitaqu,2693
511600,广安市,,510000,guanganshi,2572
511602,广安区,,511600,guanganqu,2705
511621,岳池县,,511600,yuechixian,2705
511622,武胜县,,511600,wushengxian,2705
511623,邻水县,,511600,linshuixian,2705
511681,华蓥市,,511600,huashi,2705
511682,市辖区,,511600,shixiaqu,2705
511683,其它区,,511600,qitaqu,2705
511700,达州市,,510000,dazhoushi,2572
511702,通川区,,511700,tongchuanqu,2713
511721,达县,,511700,daxian,2713
511722,宣汉县,,511700,xuanhanxian,2713
511723,开江县,,511700,kaijiangxian,2713
511724,大竹县,,511700,dazhuxian,2713
511725,渠县,,511700,quxian,2713
511781,万源市,,511700,wanyuanshi,2713
511782,其它区,,511700,qitaqu,2713
511800,雅安市,,510000,yaanshi,2572
511802,雨城区,,511800,yuchengqu,2722
511821,名山县,,511800,mingshanxian,2722
511822,荥经县,,511800,jingxian,2722
511823,汉源县,,511800,hanyuanxian,2722
511824,石棉县,,511800,shimianxian,2722
511825,天全县,,511800,tianquanxian,2722
511826,芦山县,,511800,lushanxian,2722
511827,宝兴县,,511800,baoxingxian,2722
511828,其它区,,511800,qitaqu,2722
511900,巴中市,,510000,bazhongshi,2572
511902,巴州区,,511900,bazhouqu,2732
511921,通江县,,511900,tongjiangxian,2732
511922,南江县,,511900,nanjiangxian,2732
511923,平昌县,,511900,pingchangxian,2732
511924,其它区,,511900,qitaqu,2732
512000,资阳市,,510000,ziyangshi,2572
512002,雁江区,,512000,yanjiangqu,2738
512021,安岳县,,512000,anyuexian,2738
512022,乐至县,,512000,lezhixian,2738
512081,简阳市,,512000,jianyangshi,2738
512082,其它区,,512000,qitaqu,2738
513200,阿坝藏族羌族自治州,,510000,abacangzuqiangzuzizhizhou,2572
513221,汶川县,,513200,chuanxian,2744
513222,理县,,513200,lixian,2744
513223,茂县,,513200,maoxian,2744
513224,松潘县,,513200,songpanxian,2744
513225,九寨沟县,,513200,jiuzhaigouxian,2744
513226,金川县,,513200,jinchuanxian,2744
513227,小金县,,513200,xiaojinxian,2744
513228,黑水县,,513200,heishuixian,2744
513229,马尔康县,,513200,maerkangxian,2744
513230,壤塘县,,513200,rangtangxian,2744
513231,阿坝县,,513200,abaxian,2744
513232,若尔盖县,,513200,ruoergaixian,2744
513233,红原县,,513200,hongyuanxian,2744
513234,其它区,,513200,qitaqu,2744
513300,甘孜藏族自治州,,510000,ganzicangzuzizhizhou,2572
513321,康定县,,513300,kangdingxian,2759
513322,泸定县,,513300,dingxian,2759
513323,丹巴县,,513300,danbaxian,2759
513324,九龙县,,513300,jiulongxian,2759
513325,雅江县,,513300,yajiangxian,2759
513326,道孚县,,513300,daoxian,2759
513327,炉霍县,,513300,luhuoxian,2759
513328,甘孜县,,513300,ganzixian,2759
513329,新龙县,,513300,xinlongxian,2759
513330,德格县,,513300,degexian,2759
513331,白玉县,,513300,baiyuxian,2759
513332,石渠县,,513300,shiquxian,2759
513333,色达县,,513300,sedaxian,2759
513334,理塘县,,513300,litangxian,2759
513335,巴塘县,,513300,batangxian,2759
513336,乡城县,,513300,xiangchengxian,2759
513337,稻城县,,513300,daochengxian,2759
513338,得荣县,,513300,derongxian,2759
513339,其它区,,513300,qitaqu,2759
513400,凉山彝族自治州,,510000,liangshanyizuzizhizhou,2572
513401,西昌市,,513400,xichangshi,2779
513422,木里藏族自治县,,513400,mulicangzuzizhixian,2779
513423,盐源县,,513400,yanyuanxian,2779
513424,德昌县,,513400,dechangxian,2779
513425,会理县,,513400,huilixian,2779
513426,会东县,,513400,huidongxian,2779
513427,宁南县,,513400,ningnanxian,2779
513428,普格县,,513400,pugexian,2779
513429,布拖县,,513400,butuoxian,2779
513430,金阳县,,513400,jinyangxian,2779
513431,昭觉县,,513400,zhaojuexian,2779
513432,喜德县,,513400,xidexian,2779
513433,冕宁县,,513400,mianningxian,2779
513434,越西县,,513400,yuexixian,2779
513435,甘洛县,,513400,ganluoxian,2779
513436,美姑县,,513400,meiguxian,2779
513437,雷波县,,513400,leiboxian,2779
513438,其它区,,513400,qitaqu,2779
520000,贵州省,贵,0,guizhousheng,null
520100,贵阳市,,520000,guiyangshi,2798
520102,南明区,,520100,nanmingqu,2799
520103,云岩区,,520100,yunyanqu,2799
520111,花溪区,,520100,huaxiqu,2799
520112,乌当区,,520100,wudangqu,2799
520113,白云区,,520100,baiyunqu,2799
520114,小河区,,520100,xiaohequ,2799
520121,开阳县,,520100,kaiyangxian,2799
520122,息烽县,,520100,xifengxian,2799
520123,修文县,,520100,xiuwenxian,2799
520151,金阳开发区,,520100,jinyangkaifaqu,2799
520181,清镇市,,520100,qingzhenshi,2799
520182,其它区,,520100,qitaqu,2799
520200,六盘水市,,520000,liupanshuishi,2798
520201,钟山区,,520200,zhongshanqu,2812
520203,六枝特区,,520200,liuzhitequ,2812
520221,水城县,,520200,shuichengxian,2812
520222,盘县,,520200,panxian,2812
520223,其它区,,520200,qitaqu,2812
520300,遵义市,,520000,zunyishi,2798
520302,红花岗区,,520300,honghuagangqu,2818
520303,汇川区,,520300,huichuanqu,2818
520321,遵义县,,520300,zunyixian,2818
520322,桐梓县,,520300,tongxian,2818
520323,绥阳县,,520300,suiyangxian,2818
520324,正安县,,520300,zhenganxian,2818
520325,道真仡佬族苗族自治县,,520300,daozhenlaozumiaozuzizhixian,2818
520326,务川仡佬族苗族自治县,,520300,wuchuanlaozumiaozuzizhixian,2818
520327,凤冈县,,520300,fenggangxian,2818
520328,湄潭县,,520300,tanxian,2818
520329,余庆县,,520300,yuqingxian,2818
520330,习水县,,520300,xishuixian,2818
520381,赤水市,,520300,chishuishi,2818
520382,仁怀市,,520300,renhuaishi,2818
520383,其它区,,520300,qitaqu,2818
520400,安顺市,,520000,anshunshi,2798
520402,西秀区,,520400,xixiuqu,2834
520421,平坝县,,520400,pingbaxian,2834
520422,普定县,,520400,pudingxian,2834
520423,镇宁布依族苗族自治县,,520400,zhenningbuyizumiaozuzizhixian,2834
520424,关岭布依族苗族自治县,,520400,guanlingbuyizumiaozuzizhixian,2834
520425,紫云苗族布依族自治县,,520400,ziyunmiaozubuyizuzizhixian,2834
520426,其它区,,520400,qitaqu,2834
522200,铜仁地区,,520000,tongrendiqu,2798
522201,铜仁市,,522200,tongrenshi,2842
522222,江口县,,522200,jiangkouxian,2842
522223,玉屏侗族自治县,,522200,yupingdongzuzizhixian,2842
522224,石阡县,,522200,shixian,2842
522225,思南县,,522200,sinanxian,2842
522226,印江土家族苗族自治县,,522200,yinjiangtujiazumiaozuzizhixian,2842
522227,德江县,,522200,dejiangxian,2842
522228,沿河土家族自治县,,522200,yanhetujiazuzizhixian,2842
522229,松桃苗族自治县,,522200,songtaomiaozuzizhixian,2842
522230,万山特区,,522200,wanshantequ,2842
522231,其它区,,522200,qitaqu,2842
522300,黔西南布依族苗族自治州,,520000,qianxinanbuyizumiaozuzizhizhou,2798
522301,兴义市,,522300,xingyishi,2854
522322,兴仁县,,522300,xingrenxian,2854
522323,普安县,,522300,puanxian,2854
522324,晴隆县,,522300,qinglongxian,2854
522325,贞丰县,,522300,zhenfengxian,2854
522326,望谟县,,522300,wangxian,2854
522327,册亨县,,522300,cehengxian,2854
522328,安龙县,,522300,anlongxian,2854
522329,其它区,,522300,qitaqu,2854
522400,毕节地区,,520000,bijiediqu,2798
522401,毕节市,,522400,bijieshi,2864
522422,大方县,,522400,dafangxian,2864
522423,黔西县,,522400,qianxixian,2864
522424,金沙县,,522400,jinshaxian,2864
522425,织金县,,522400,zhijinxian,2864
522426,纳雍县,,522400,nayongxian,2864
522427,威宁彝族回族苗族自治县,,522400,weiningyizuhuizumiaozuzizhixian,2864
522428,赫章县,,522400,hezhangxian,2864
522429,其它区,,522400,qitaqu,2864
522600,黔东南苗族侗族自治州,,520000,qiandongnanmiaozudongzuzizhizhou,2798
522601,凯里市,,522600,kailishi,2874
522622,黄平县,,522600,huangpingxian,2874
522623,施秉县,,522600,shibingxian,2874
522624,三穗县,,522600,sansuixian,2874
522625,镇远县,,522600,zhenyuanxian,2874
522626,岑巩县,,522600,gongxian,2874
522627,天柱县,,522600,tianzhuxian,2874
522628,锦屏县,,522600,jinpingxian,2874
522629,剑河县,,522600,jianhexian,2874
522630,台江县,,522600,taijiangxian,2874
522631,黎平县,,522600,lipingxian,2874
522632,榕江县,,522600,jiangxian,2874
522633,从江县,,522600,congjiangxian,2874
522634,雷山县,,522600,leishanxian,2874
522635,麻江县,,522600,majiangxian,2874
522636,丹寨县,,522600,danzhaixian,2874
522637,其它区,,522600,qitaqu,2874
522700,黔南布依族苗族自治州,,520000,qiannanbuyizumiaozuzizhizhou,2798
522701,都匀市,,522700,duyunshi,2892
522702,福泉市,,522700,fuquanshi,2892
522722,荔波县,,522700,liboxian,2892
522723,贵定县,,522700,guidingxian,2892
522725,瓮安县,,522700,wenganxian,2892
522726,独山县,,522700,dushanxian,2892
522727,平塘县,,522700,pingtangxian,2892
522728,罗甸县,,522700,luodianxian,2892
522729,长顺县,,522700,changshunxian,2892
522730,龙里县,,522700,longlixian,2892
522731,惠水县,,522700,huishuixian,2892
522732,三都水族自治县,,522700,sandushuizuzizhixian,2892
522733,其它区,,522700,qitaqu,2892
530000,云南省,云,0,yunnansheng,null
530100,昆明市,,530000,kunmingshi,2906
530102,五华区,,530100,wuhuaqu,2907
530103,盘龙区,,530100,panlongqu,2907
530111,官渡区,,530100,guanduqu,2907
530112,西山区,,530100,xishanqu,2907
530113,东川区,,530100,dongchuanqu,2907
530121,呈贡县,,530100,chenggongxian,2907
530122,晋宁县,,530100,jinningxian,2907
530124,富民县,,530100,fuminxian,2907
530125,宜良县,,530100,yiliangxian,2907
530126,石林彝族自治县,,530100,shilinyizuzizhixian,2907
530127,嵩明县,,530100,mingxian,2907
530128,禄劝彝族苗族自治县,,530100,luquanyizumiaozuzizhixian,2907
530129,寻甸回族彝族自治县,,530100,xundianhuizuyizuzizhixian,2907
530181,安宁市,,530100,anningshi,2907
530182,其它区,,530100,qitaqu,2907
530300,曲靖市,,530000,qujingshi,2906
530302,麒麟区,,530300,qu,2923
530321,马龙县,,530300,malongxian,2923
530322,陆良县,,530300,luliangxian,2923
530323,师宗县,,530300,shizongxian,2923
530324,罗平县,,530300,luopingxian,2923
530325,富源县,,530300,fuyuanxian,2923
530326,会泽县,,530300,huizexian,2923
530328,沾益县,,530300,zhanyixian,2923
530381,宣威市,,530300,xuanweishi,2923
530382,其它区,,530300,qitaqu,2923
530400,玉溪市,,530000,yuxishi,2906
530402,红塔区,,530400,hongtaqu,2934
530421,江川县,,530400,jiangchuanxian,2934
530422,澄江县,,530400,chengjiangxian,2934
530423,通海县,,530400,tonghaixian,2934
530424,华宁县,,530400,huaningxian,2934
530425,易门县,,530400,yimenxian,2934
530426,峨山彝族自治县,,530400,eshanyizuzizhixian,2934
530427,新平彝族傣族自治县,,530400,xinpingyizudaizuzizhixian,2934
530428,元江哈尼族彝族傣族自治县,,530400,yuanjianghanizuyizudaizuzizhixian,2934
530429,其它区,,530400,qitaqu,2934
530500,保山市,,530000,baoshanshi,2906
530502,隆阳区,,530500,longyangqu,2945
530521,施甸县,,530500,shidianxian,2945
530522,腾冲县,,530500,tengchongxian,2945
530523,龙陵县,,530500,longlingxian,2945
530524,昌宁县,,530500,changningxian,2945
530525,其它区,,530500,qitaqu,2945
530600,昭通市,,530000,zhaotongshi,2906
530602,昭阳区,,530600,zhaoyangqu,2952
530621,鲁甸县,,530600,ludianxian,2952
530622,巧家县,,530600,qiaojiaxian,2952
530623,盐津县,,530600,yanjinxian,2952
530624,大关县,,530600,daguanxian,2952
530625,永善县,,530600,yongshanxian,2952
530626,绥江县,,530600,suijiangxian,2952
530627,镇雄县,,530600,zhenxiongxian,2952
530628,彝良县,,530600,yiliangxian,2952
530629,威信县,,530600,weixinxian,2952
530630,水富县,,530600,shuifuxian,2952
530631,其它区,,530600,qitaqu,2952
530700,丽江市,,530000,lijiangshi,2906
530702,古城区,,530700,guchengqu,2965
530721,玉龙纳西族自治县,,530700,yulongnaxizuzizhixian,2965
530722,永胜县,,530700,yongshengxian,2965
530723,华坪县,,530700,huapingxian,2965
530724,宁蒗彝族自治县,,530700,ningyizuzizhixian,2965
530725,其它区,,530700,qitaqu,2965
530800,普洱市,,530000,puershi,2906
530802,思茅区,,530800,simaoqu,2972
530821,宁洱哈尼族彝族自治县,,530800,ningerhanizuyizuzizhixian,2972
530822,墨江哈尼族自治县,,530800,mojianghanizuzizhixian,2972
530823,景东彝族自治县,,530800,jingdongyizuzizhixian,2972
530824,景谷傣族彝族自治县,,530800,jinggudaizuyizuzizhixian,2972
530825,镇沅彝族哈尼族拉祜族自治县,,530800,zhenyizuhanizulazuzizhixian,2972
530826,江城哈尼族彝族自治县,,530800,jiangchenghanizuyizuzizhixian,2972
530827,孟连傣族拉祜族佤族自治县,,530800,mengliandaizulazuzuzizhixian,2972
530828,澜沧拉祜族自治县,,530800,lancanglazuzizhixian,2972
530829,西盟佤族自治县,,530800,ximengzuzizhixian,2972
530830,其它区,,530800,qitaqu,2972
530900,临沧市,,530000,lincangshi,2906
530902,临翔区,,530900,linxiangqu,2984
530921,凤庆县,,530900,fengqingxian,2984
530922,云县,,530900,yunxian,2984
530923,永德县,,530900,yongdexian,2984
530924,镇康县,,530900,zhenkangxian,2984
530925,双江拉祜族佤族布朗族傣族自治县,,530900,shuangjianglazuzubulangzudaizuzizhixian,2984
530926,耿马傣族佤族自治县,,530900,gengmadaizuzuzizhixian,2984
530927,沧源佤族自治县,,530900,cangyuanzuzizhixian,2984
530928,其它区,,530900,qitaqu,2984
532300,楚雄彝族自治州,,530000,chuxiongyizuzizhizhou,2906
532301,楚雄市,,532300,chuxiongshi,2994
532322,双柏县,,532300,shuangbaixian,2994
532323,牟定县,,532300,moudingxian,2994
532324,南华县,,532300,nanhuaxian,2994
532325,姚安县,,532300,yaoanxian,2994
532326,大姚县,,532300,dayaoxian,2994
532327,永仁县,,532300,yongrenxian,2994
532328,元谋县,,532300,yuanmouxian,2994
532329,武定县,,532300,wudingxian,2994
532331,禄丰县,,532300,lufengxian,2994
532332,其它区,,532300,qitaqu,2994
532500,红河哈尼族彝族自治州,,530000,honghehanizuyizuzizhizhou,2906
532501,个旧市,,532500,gejiushi,3006
532502,开远市,,532500,kaiyuanshi,3006
532522,蒙自县,,532500,mengzixian,3006
532523,屏边苗族自治县,,532500,pingbianmiaozuzizhixian,3006
532524,建水县,,532500,jianshuixian,3006
532525,石屏县,,532500,shipingxian,3006
532526,弥勒县,,532500,milexian,3006
532527,泸西县,,532500,xixian,3006
532528,元阳县,,532500,yuanyangxian,3006
532529,红河县,,532500,honghexian,3006
532530,金平苗族瑶族傣族自治县,,532500,jinpingmiaozuyaozudaizuzizhixian,3006
532531,绿春县,,532500,lvchunxian,3006
532532,河口瑶族自治县,,532500,hekouyaozuzizhixian,3006
532533,其它区,,532500,qitaqu,3006
532600,文山壮族苗族自治州,,530000,wenshanzhuangzumiaozuzizhizhou,2906
532621,文山县,,532600,wenshanxian,3021
532622,砚山县,,532600,yanshanxian,3021
532623,西畴县,,532600,xichouxian,3021
532624,麻栗坡县,,532600,malipoxian,3021
532625,马关县,,532600,maguanxian,3021
532626,丘北县,,532600,qiubeixian,3021
532627,广南县,,532600,guangnanxian,3021
532628,富宁县,,532600,funingxian,3021
532629,其它区,,532600,qitaqu,3021
532800,西双版纳傣族自治州,,530000,xishuangbannadaizuzizhizhou,2906
532801,景洪市,,532800,jinghongshi,3031
532822,勐海县,,532800,haixian,3031
532823,勐腊县,,532800,laxian,3031
532824,其它区,,532800,qitaqu,3031
532900,大理白族自治州,,530000,dalibaizuzizhizhou,2906
532901,大理市,,532900,dalishi,3036
532922,漾濞彝族自治县,,532900,yangyizuzizhixian,3036
532923,祥云县,,532900,xiangyunxian,3036
532924,宾川县,,532900,binchuanxian,3036
532925,弥渡县,,532900,miduxian,3036
532926,南涧彝族自治县,,532900,nanjianyizuzizhixian,3036
532927,巍山彝族回族自治县,,532900,weishanyizuhuizuzizhixian,3036
532928,永平县,,532900,yongpingxian,3036
532929,云龙县,,532900,yunlongxian,3036
532930,洱源县,,532900,eryuanxian,3036
532931,剑川县,,532900,jianchuanxian,3036
532932,鹤庆县,,532900,heqingxian,3036
532933,其它区,,532900,qitaqu,3036
533100,德宏傣族景颇族自治州,,530000,dehongdaizujingpozuzizhizhou,2906
533102,瑞丽市,,533100,ruilishi,3050
533103,潞西市,,533100,luxishi,3050
533122,梁河县,,533100,lianghexian,3050
533123,盈江县,,533100,yingjiangxian,3050
533124,陇川县,,533100,longchuanxian,3050
533125,其它区,,533100,qitaqu,3050
533300,怒江傈僳族自治州,,530000,nujianglisuzuzizhizhou,2906
533321,泸水县,,533300,shuixian,3057
533323,福贡县,,533300,fugongxian,3057
533324,贡山独龙族怒族自治县,,533300,gongshandulongzunuzuzizhixian,3057
533325,兰坪白族普米族自治县,,533300,lanpingbaizupumizuzizhixian,3057
533326,其它区,,533300,qitaqu,3057
533400,迪庆藏族自治州,,530000,diqingcangzuzizhizhou,2906
533421,香格里拉县,,533400,xianggelilaxian,3063
533422,德钦县,,533400,deqinxian,3063
533423,维西傈僳族自治县,,533400,weixilisuzuzizhixian,3063
533424,其它区,,533400,qitaqu,3063
540000,西藏自治区,藏,0,xicangzizhiqu,null
540100,拉萨市,,540000,lasashi,3068
540102,城关区,,540100,chengguanqu,3069
540121,林周县,,540100,linzhouxian,3069
540122,当雄县,,540100,dangxiongxian,3069
540123,尼木县,,540100,nimuxian,3069
540124,曲水县,,540100,qushuixian,3069
540125,堆龙德庆县,,540100,duilongdeqingxian,3069
540126,达孜县,,540100,dazixian,3069
540127,墨竹工卡县,,540100,mozhugongkaxian,3069
540128,其它区,,540100,qitaqu,3069
542100,昌都地区,,540000,changdudiqu,3068
542121,昌都县,,542100,changduxian,3079
542122,江达县,,542100,jiangdaxian,3079
542123,贡觉县,,542100,gongjuexian,3079
542124,类乌齐县,,542100,leiwuqixian,3079
542125,丁青县,,542100,dingqingxian,3079
542126,察雅县,,542100,chayaxian,3079
542127,八宿县,,542100,basuxian,3079
542128,左贡县,,542100,zuogongxian,3079
542129,芒康县,,542100,mangkangxian,3079
542132,洛隆县,,542100,luolongxian,3079
542133,边坝县,,542100,bianbaxian,3079
542134,其它区,,542100,qitaqu,3079
542200,山南地区,,540000,shannandiqu,3068
542221,乃东县,,542200,naidongxian,3092
542222,扎囊县,,542200,zhanangxian,3092
542223,贡嘎县,,542200,gonggaxian,3092
542224,桑日县,,542200,sangrixian,3092
542225,琼结县,,542200,qiongjiexian,3092
542226,曲松县,,542200,qusongxian,3092
542227,措美县,,542200,cuomeixian,3092
542228,洛扎县,,542200,luozhaxian,3092
542229,加查县,,542200,jiachaxian,3092
542231,隆子县,,542200,longzixian,3092
542232,错那县,,542200,cuonaxian,3092
542233,浪卡子县,,542200,langkazixian,3092
542234,其它区,,542200,qitaqu,3092
542300,日喀则地区,,540000,rikazediqu,3068
542301,日喀则市,,542300,rikazeshi,3106
542322,南木林县,,542300,nanmulinxian,3106
542323,江孜县,,542300,jiangzixian,3106
542324,定日县,,542300,dingrixian,3106
542325,萨迦县,,542300,saxian,3106
542326,拉孜县,,542300,lazixian,3106
542327,昂仁县,,542300,angrenxian,3106
542328,谢通门县,,542300,xietongmenxian,3106
542329,白朗县,,542300,bailangxian,3106
542330,仁布县,,542300,renbuxian,3106
542331,康马县,,542300,kangmaxian,3106
542332,定结县,,542300,dingjiexian,3106
542333,仲巴县,,542300,zhongbaxian,3106
542334,亚东县,,542300,yadongxian,3106
542335,吉隆县,,542300,jilongxian,3106
542336,聂拉木县,,542300,nielamuxian,3106
542337,萨嘎县,,542300,sagaxian,3106
542338,岗巴县,,542300,gangbaxian,3106
542339,其它区,,542300,qitaqu,3106
542400,那曲地区,,540000,naqudiqu,3068
542421,那曲县,,542400,naquxian,3126
542422,嘉黎县,,542400,jialixian,3126
542423,比如县,,542400,biruxian,3126
542424,聂荣县,,542400,nierongxian,3126
542425,安多县,,542400,anduoxian,3126
542426,申扎县,,542400,shenzhaxian,3126
542427,索县,,542400,suoxian,3126
542428,班戈县,,542400,bangexian,3126
542429,巴青县,,542400,baqingxian,3126
542430,尼玛县,,542400,nimaxian,3126
542431,其它区,,542400,qitaqu,3126
542500,阿里地区,,540000,alidiqu,3068
542521,普兰县,,542500,pulanxian,3138
542522,札达县,,542500,zhadaxian,3138
542523,噶尔县,,542500,gaerxian,3138
542524,日土县,,542500,rituxian,3138
542525,革吉县,,542500,gejixian,3138
542526,改则县,,542500,gaizexian,3138
542527,措勤县,,542500,cuoqinxian,3138
542528,其它区,,542500,qitaqu,3138
542600,林芝地区,,540000,linzhidiqu,3068
542621,林芝县,,542600,linzhixian,3147
542622,工布江达县,,542600,gongbujiangdaxian,3147
542623,米林县,,542600,milinxian,3147
542624,墨脱县,,542600,motuoxian,3147
542625,波密县,,542600,bomixian,3147
542626,察隅县,,542600,chayuxian,3147
542627,朗县,,542600,langxian,3147
542628,其它区,,542600,qitaqu,3147
610000,陕西省,陕,0,shanxisheng,null
610100,西安市,,610000,xianshi,3156
610102,新城区,,610100,xinchengqu,3157
610103,碑林区,,610100,beilinqu,3157
610104,莲湖区,,610100,lianhuqu,3157
610111,灞桥区,,610100,qiaoqu,3157
610112,未央区,,610100,weiyangqu,3157
610113,雁塔区,,610100,yantaqu,3157
610114,阎良区,,610100,yanliangqu,3157
610115,临潼区,,610100,linqu,3157
610116,长安区,,610100,changanqu,3157
610122,蓝田县,,610100,lantianxian,3157
610124,周至县,,610100,zhouzhixian,3157
610125,户县,,610100,huxian,3157
610126,高陵县,,610100,gaolingxian,3157
610127,其它区,,610100,qitaqu,3157
610200,铜川市,,610000,tongchuanshi,3156
610202,王益区,,610200,wangyiqu,3172
610203,印台区,,610200,yintaiqu,3172
610204,耀州区,,610200,yaozhouqu,3172
610222,宜君县,,610200,yijunxian,3172
610223,其它区,,610200,qitaqu,3172
610300,宝鸡市,,610000,baojishi,3156
610302,渭滨区,,610300,weibinqu,3178
610303,金台区,,610300,jintaiqu,3178
610304,陈仓区,,610300,chencangqu,3178
610322,凤翔县,,610300,fengxiangxian,3178
610323,岐山县,,610300,shanxian,3178
610324,扶风县,,610300,fufengxian,3178
610326,眉县,,610300,meixian,3178
610327,陇县,,610300,longxian,3178
610328,千阳县,,610300,qianyangxian,3178
610329,麟游县,,610300,youxian,3178
610330,凤县,,610300,fengxian,3178
610331,太白县,,610300,taibaixian,3178
610332,其它区,,610300,qitaqu,3178
610400,咸阳市,,610000,xianyangshi,3156
610402,秦都区,,610400,qinduqu,3192
610403,杨凌区,,610400,yanglingqu,3192
610404,渭城区,,610400,weichengqu,3192
610422,三原县,,610400,sanyuanxian,3192
610423,泾阳县,,610400,yangxian,3192
610424,乾县,,610400,qianxian,3192
610425,礼泉县,,610400,liquanxian,3192
610426,永寿县,,610400,yongshouxian,3192
610427,彬县,,610400,binxian,3192
610428,长武县,,610400,changwuxian,3192
610429,旬邑县,,610400,xunyixian,3192
610430,淳化县,,610400,chunhuaxian,3192
610431,武功县,,610400,wugongxian,3192
610481,兴平市,,610400,xingpingshi,3192
610482,其它区,,610400,qitaqu,3192
610500,渭南市,,610000,weinanshi,3156
610502,临渭区,,610500,linweiqu,3208
610521,华县,,610500,huaxian,3208
610522,潼关县,,610500,guanxian,3208
610523,大荔县,,610500,dalixian,3208
610524,合阳县,,610500,heyangxian,3208
610525,澄城县,,610500,chengchengxian,3208
610526,蒲城县,,610500,puchengxian,3208
610527,白水县,,610500,baishuixian,3208
610528,富平县,,610500,fupingxian,3208
610581,韩城市,,610500,hanchengshi,3208
610582,华阴市,,610500,huayinshi,3208
610583,其它区,,610500,qitaqu,3208
610600,延安市,,610000,yananshi,3156
610602,宝塔区,,610600,baotaqu,3221
610621,延长县,,610600,yanchangxian,3221
610622,延川县,,610600,yanchuanxian,3221
610623,子长县,,610600,zichangxian,3221
610624,安塞县,,610600,ansaixian,3221
610625,志丹县,,610600,zhidanxian,3221
610626,吴起县,,610600,wuqixian,3221
610627,甘泉县,,610600,ganquanxian,3221
610628,富县,,610600,fuxian,3221
610629,洛川县,,610600,luochuanxian,3221
610630,宜川县,,610600,yichuanxian,3221
610631,黄龙县,,610600,huanglongxian,3221
610632,黄陵县,,610600,huanglingxian,3221
610633,其它区,,610600,qitaqu,3221
610700,汉中市,,610000,hanzhongshi,3156
610702,汉台区,,610700,hantaiqu,3236
610721,南郑县,,610700,nanzhengxian,3236
610722,城固县,,610700,chengguxian,3236
610723,洋县,,610700,yangxian,3236
610724,西乡县,,610700,xixiangxian,3236
610725,勉县,,610700,mianxian,3236
610726,宁强县,,610700,ningqiangxian,3236
610727,略阳县,,610700,lueyangxian,3236
610728,镇巴县,,610700,zhenbaxian,3236
610729,留坝县,,610700,liubaxian,3236
610730,佛坪县,,610700,fopingxian,3236
610731,其它区,,610700,qitaqu,3236
610800,榆林市,,610000,yulinshi,3156
610802,榆阳区,,610800,yuyangqu,3249
610821,神木县,,610800,shenmuxian,3249
610822,府谷县,,610800,fuguxian,3249
610823,横山县,,610800,hengshanxian,3249
610824,靖边县,,610800,jingbianxian,3249
610825,定边县,,610800,dingbianxian,3249
610826,绥德县,,610800,suidexian,3249
610827,米脂县,,610800,mizhixian,3249
610828,佳县,,610800,jiaxian,3249
610829,吴堡县,,610800,wubaoxian,3249
610830,清涧县,,610800,qingjianxian,3249
610831,子洲县,,610800,zizhouxian,3249
610832,其它区,,610800,qitaqu,3249
610900,安康市,,610000,ankangshi,3156
610902,汉滨区,,610900,hanbinqu,3263
610921,汉阴县,,610900,hanyinxian,3263
610922,石泉县,,610900,shiquanxian,3263
610923,宁陕县,,610900,ningshanxian,3263
610924,紫阳县,,610900,ziyangxian,3263
610925,岚皋县,,610900,gaoxian,3263
610926,平利县,,610900,pinglixian,3263
610927,镇坪县,,610900,zhenpingxian,3263
610928,旬阳县,,610900,xunyangxian,3263
610929,白河县,,610900,baihexian,3263
610930,其它区,,610900,qitaqu,3263
611000,商洛市,,610000,shangluoshi,3156
611002,商州区,,611000,shangzhouqu,3275
611021,洛南县,,611000,luonanxian,3275
611022,丹凤县,,611000,danfengxian,3275
611023,商南县,,611000,shangnanxian,3275
611024,山阳县,,611000,shanyangxian,3275
611025,镇安县,,611000,zhenanxian,3275
611026,柞水县,,611000,zuoshuixian,3275
611027,其它区,,611000,qitaqu,3275
620000,甘肃省,甘,0,gansusheng,null
620100,兰州市,,620000,lanzhoushi,3284
620102,城关区,,620100,chengguanqu,3285
620103,七里河区,,620100,qilihequ,3285
620104,西固区,,620100,xiguqu,3285
620105,安宁区,,620100,anningqu,3285
620111,红古区,,620100,hongguqu,3285
620121,永登县,,620100,yongdengxian,3285
620122,皋兰县,,620100,gaolanxian,3285
620123,榆中县,,620100,yuzhongxian,3285
620124,其它区,,620100,qitaqu,3285
620200,嘉峪关市,,620000,jiayuguanshi,3284
620300,金昌市,,620000,jinchangshi,3284
620302,金川区,,620300,jinchuanqu,3296
620321,永昌县,,620300,yongchangxian,3296
620322,其它区,,620300,qitaqu,3296
620400,白银市,,620000,baiyinshi,3284
620402,白银区,,620400,baiyinqu,3300
620403,平川区,,620400,pingchuanqu,3300
620421,靖远县,,620400,jingyuanxian,3300
620422,会宁县,,620400,huiningxian,3300
620423,景泰县,,620400,jingtaixian,3300
620424,其它区,,620400,qitaqu,3300
620500,天水市,,620000,tianshuishi,3284
620502,秦州区,,620500,qinzhouqu,3307
620503,麦积区,,620500,maijiqu,3307
620521,清水县,,620500,qingshuixian,3307
620522,秦安县,,620500,qinanxian,3307
620523,甘谷县,,620500,ganguxian,3307
620524,武山县,,620500,wushanxian,3307
620525,张家川回族自治县,,620500,zhangjiachuanhuizuzizhixian,3307
620526,其它区,,620500,qitaqu,3307
620600,武威市,,620000,wuweishi,3284
620602,凉州区,,620600,liangzhouqu,3316
620621,民勤县,,620600,minqinxian,3316
620622,古浪县,,620600,gulangxian,3316
620623,天祝藏族自治县,,620600,tianzhucangzuzizhixian,3316
620624,其它区,,620600,qitaqu,3316
620700,张掖市,,620000,zhangyeshi,3284
620702,甘州区,,620700,ganzhouqu,3322
620721,肃南裕固族自治县,,620700,sunanyuguzuzizhixian,3322
620722,民乐县,,620700,minlexian,3322
620723,临泽县,,620700,linzexian,3322
620724,高台县,,620700,gaotaixian,3322
620725,山丹县,,620700,shandanxian,3322
620726,其它区,,620700,qitaqu,3322
620800,平凉市,,620000,pingliangshi,3284
620802,崆峒区,,620800,qu,3330
620821,泾川县,,620800,chuanxian,3330
620822,灵台县,,620800,lingtaixian,3330
620823,崇信县,,620800,chongxinxian,3330
620824,华亭县,,620800,huatingxian,3330
620825,庄浪县,,620800,zhuanglangxian,3330
620826,静宁县,,620800,jingningxian,3330
620827,其它区,,620800,qitaqu,3330
620900,酒泉市,,620000,jiuquanshi,3284
620902,肃州区,,620900,suzhouqu,3339
620921,金塔县,,620900,jintaxian,3339
620922,安西县,,620900,anxixian,3339
620923,肃北蒙古族自治县,,620900,subeimengguzuzizhixian,3339
620924,阿克塞哈萨克族自治县,,620900,akesaihasakezuzizhixian,3339
620981,玉门市,,620900,yumenshi,3339
620982,敦煌市,,620900,dunhuangshi,3339
620983,其它区,,620900,qitaqu,3339
621000,庆阳市,,620000,qingyangshi,3284
621002,西峰区,,621000,xifengqu,3348
621021,庆城县,,621000,qingchengxian,3348
621022,环县,,621000,huanxian,3348
621023,华池县,,621000,huachixian,3348
621024,合水县,,621000,heshuixian,3348
621025,正宁县,,621000,zhengningxian,3348
621026,宁县,,621000,ningxian,3348
621027,镇原县,,621000,zhenyuanxian,3348
621028,其它区,,621000,qitaqu,3348
621100,定西市,,620000,dingxishi,3284
621102,安定区,,621100,andingqu,3358
621121,通渭县,,621100,tongweixian,3358
621122,陇西县,,621100,longxixian,3358
621123,渭源县,,621100,weiyuanxian,3358
621124,临洮县,,621100,linxian,3358
621125,漳县,,621100,zhangxian,3358
621126,岷县,,621100,xian,3358
621127,其它区,,621100,qitaqu,3358
621200,陇南市,,620000,longnanshi,3284
621202,武都区,,621200,wuduqu,3367
621221,成县,,621200,chengxian,3367
621222,文县,,621200,wenxian,3367
621223,宕昌县,,621200,changxian,3367
621224,康县,,621200,kangxian,3367
621225,西和县,,621200,xihexian,3367
621226,礼县,,621200,lixian,3367
621227,徽县,,621200,huixian,3367
621228,两当县,,621200,liangdangxian,3367
621229,其它区,,621200,qitaqu,3367
622900,临夏回族自治州,,620000,linxiahuizuzizhizhou,3284
622901,临夏市,,622900,linxiashi,3378
622921,临夏县,,622900,linxiaxian,3378
622922,康乐县,,622900,kanglexian,3378
622923,永靖县,,622900,yongjingxian,3378
622924,广河县,,622900,guanghexian,3378
622925,和政县,,622900,hezhengxian,3378
622926,东乡族自治县,,622900,dongxiangzuzizhixian,3378
622927,积石山保安族东乡族撒拉族自治县,,622900,jishishanbaoanzudongxiangzusalazuzizhixian,3378
622928,其它区,,622900,qitaqu,3378
623000,甘南藏族自治州,,620000,gannancangzuzizhizhou,3284
623001,合作市,,623000,hezuoshi,3388
623021,临潭县,,623000,lintanxian,3388
623022,卓尼县,,623000,zhuonixian,3388
623023,舟曲县,,623000,zhouquxian,3388
623024,迭部县,,623000,diebuxian,3388
623025,玛曲县,,623000,maquxian,3388
623026,碌曲县,,623000,luquxian,3388
623027,夏河县,,623000,xiahexian,3388
623028,其它区,,623000,qitaqu,3388
630000,青海省,青,0,qinghaisheng,null
630100,西宁市,,630000,xiningshi,3398
630102,城东区,,630100,chengdongqu,3399
630103,城中区,,630100,chengzhongqu,3399
630104,城西区,,630100,chengxiqu,3399
630105,城北区,,630100,chengbeiqu,3399
630121,大通回族土族自治县,,630100,datonghuizutuzuzizhixian,3399
630122,湟中县,,630100,zhongxian,3399
630123,湟源县,,630100,yuanxian,3399
630124,其它区,,630100,qitaqu,3399
632100,海东地区,,630000,haidongdiqu,3398
632121,平安县,,632100,pinganxian,3408
632122,民和回族土族自治县,,632100,minhehuizutuzuzizhixian,3408
632123,乐都县,,632100,leduxian,3408
632126,互助土族自治县,,632100,huzhutuzuzizhixian,3408
632127,化隆回族自治县,,632100,hualonghuizuzizhixian,3408
632128,循化撒拉族自治县,,632100,xunhuasalazuzizhixian,3408
632129,其它区,,632100,qitaqu,3408
632200,海北藏族自治州,,630000,haibeicangzuzizhizhou,3398
632221,门源回族自治县,,632200,menyuanhuizuzizhixian,3416
632222,祁连县,,632200,qilianxian,3416
632223,海晏县,,632200,haixian,3416
632224,刚察县,,632200,gangchaxian,3416
632225,其它区,,632200,qitaqu,3416
632300,黄南藏族自治州,,630000,huangnancangzuzizhizhou,3398
632321,同仁县,,632300,tongrenxian,3422
632322,尖扎县,,632300,jianzhaxian,3422
632323,泽库县,,632300,zekuxian,3422
632324,河南蒙古族自治县,,632300,henanmengguzuzizhixian,3422
632325,其它区,,632300,qitaqu,3422
632500,海南藏族自治州,,630000,hainancangzuzizhizhou,3398
632521,共和县,,632500,gonghexian,3428
632522,同德县,,632500,tongdexian,3428
632523,贵德县,,632500,guidexian,3428
632524,兴海县,,632500,xinghaixian,3428
632525,贵南县,,632500,guinanxian,3428
632526,其它区,,632500,qitaqu,3428
632600,果洛藏族自治州,,630000,guoluocangzuzizhizhou,3398
632621,玛沁县,,632600,maqinxian,3435
632622,班玛县,,632600,banmaxian,3435
632623,甘德县,,632600,gandexian,3435
632624,达日县,,632600,darixian,3435
632625,久治县,,632600,jiuzhixian,3435
632626,玛多县,,632600,maduoxian,3435
632627,其它区,,632600,qitaqu,3435
632700,玉树藏族自治州,,630000,yushucangzuzizhizhou,3398
632721,玉树县,,632700,yushuxian,3443
632722,杂多县,,632700,zaduoxian,3443
632723,称多县,,632700,chengduoxian,3443
632724,治多县,,632700,zhiduoxian,3443
632725,囊谦县,,632700,nangqianxian,3443
632726,曲麻莱县,,632700,qumalaixian,3443
632727,其它区,,632700,qitaqu,3443
632800,海西蒙古族藏族自治州,,630000,haiximengguzucangzuzizhizhou,3398
632801,格尔木市,,632800,geermushi,3451
632802,德令哈市,,632800,delinghashi,3451
632821,乌兰县,,632800,wulanxian,3451
632822,都兰县,,632800,dulanxian,3451
632823,天峻县,,632800,tianjunxian,3451
632824,其它区,,632800,qitaqu,3451
640000,宁夏回族自治区,宁,0,ningxiahuizuzizhiqu,null
640100,银川市,,640000,yinchuanshi,3458
640104,兴庆区,,640100,xingqingqu,3459
640105,西夏区,,640100,xixiaqu,3459
640106,金凤区,,640100,jinfengqu,3459
640121,永宁县,,640100,yongningxian,3459
640122,贺兰县,,640100,helanxian,3459
640181,灵武市,,640100,lingwushi,3459
640182,其它区,,640100,qitaqu,3459
640200,石嘴山市,,640000,shizuishanshi,3458
640202,大武口区,,640200,dawukouqu,3467
640205,惠农区,,640200,huinongqu,3467
640221,平罗县,,640200,pingluoxian,3467
640222,其它区,,640200,qitaqu,3467
640300,吴忠市,,640000,wuzhongshi,3458
640302,利通区,,640300,litongqu,3472
640303,红寺堡区,,640300,hongsibaoqu,3472
640323,盐池县,,640300,yanchixian,3472
640324,同心县,,640300,tongxinxian,3472
640381,青铜峡市,,640300,qingtongxiashi,3472
640382,其它区,,640300,qitaqu,3472
640400,固原市,,640000,guyuanshi,3458
640402,原州区,,640400,yuanzhouqu,3479
640422,西吉县,,640400,xijixian,3479
640423,隆德县,,640400,longdexian,3479
640424,泾源县,,640400,yuanxian,3479
640425,彭阳县,,640400,pengyangxian,3479
640426,其它区,,640400,qitaqu,3479
640500,中卫市,,640000,zhongweishi,3458
640502,沙坡头区,,640500,shapotouqu,3486
640521,中宁县,,640500,zhongningxian,3486
640522,海原县,,640500,haiyuanxian,3486
640523,其它区,,640500,qitaqu,3486
650000,新疆维吾尔自治区,新,0,xinjiangweiwuerzizhiqu,null
650100,乌鲁木齐市,,650000,wulumuqishi,3491
650102,天山区,,650100,tianshanqu,3492
650103,沙依巴克区,,650100,shayibakequ,3492
650104,新市区,,650100,xinshiqu,3492
650105,水磨沟区,,650100,shuimogouqu,3492
650106,头屯河区,,650100,toutunhequ,3492
650107,达坂城区,,650100,dachengqu,3492
650108,东山区,,650100,dongshanqu,3492
650109,米东区,,650100,midongqu,3492
650121,乌鲁木齐县,,650100,wulumuqixian,3492
650122,其它区,,650100,qitaqu,3492
650200,克拉玛依市,,650000,kelamayishi,3491
650202,独山子区,,650200,dushanziqu,3503
650203,克拉玛依区,,650200,kelamayiqu,3503
650204,白碱滩区,,650200,baijiantanqu,3503
650205,乌尔禾区,,650200,wuerhequ,3503
650206,其它区,,650200,qitaqu,3503
652100,吐鲁番地区,,650000,tulufandiqu,3491
652101,吐鲁番市,,652100,tulufanshi,3509
652122,鄯善县,,652100,shanxian,3509
652123,托克逊县,,652100,tuokexunxian,3509
652124,其它区,,652100,qitaqu,3509
652200,哈密地区,,650000,hamidiqu,3491
652201,哈密市,,652200,hamishi,3514
652222,巴里坤哈萨克自治县,,652200,balikunhasakezizhixian,3514
652223,伊吾县,,652200,yiwuxian,3514
652224,其它区,,652200,qitaqu,3514
652300,昌吉回族自治州,,650000,changjihuizuzizhizhou,3491
652301,昌吉市,,652300,changjishi,3519
652302,阜康市,,652300,fukangshi,3519
652303,米泉市,,652300,miquanshi,3519
652323,呼图壁县,,652300,hutubixian,3519
652324,玛纳斯县,,652300,manasixian,3519
652325,奇台县,,652300,qitaixian,3519
652327,吉木萨尔县,,652300,jimusaerxian,3519
652328,木垒哈萨克自治县,,652300,muleihasakezizhixian,3519
652329,其它区,,652300,qitaqu,3519
652700,博尔塔拉蒙古自治州,,650000,boertalamengguzizhizhou,3491
652701,博乐市,,652700,boleshi,3529
652722,精河县,,652700,jinghexian,3529
652723,温泉县,,652700,wenquanxian,3529
652724,其它区,,652700,qitaqu,3529
652800,巴音郭楞蒙古自治州,,650000,bayinguolengmengguzizhizhou,3491
652801,库尔勒市,,652800,kuerleshi,3534
652822,轮台县,,652800,luntaixian,3534
652823,尉犁县,,652800,weilixian,3534
652824,若羌县,,652800,ruoqiangxian,3534
652825,且末县,,652800,qiemoxian,3534
652826,焉耆回族自治县,,652800,yanhuizuzizhixian,3534
652827,和静县,,652800,hejingxian,3534
652828,和硕县,,652800,heshuoxian,3534
652829,博湖县,,652800,bohuxian,3534
652830,其它区,,652800,qitaqu,3534
652900,阿克苏地区,,650000,akesudiqu,3491
652901,阿克苏市,,652900,akesushi,3545
652922,温宿县,,652900,wensuxian,3545
652923,库车县,,652900,kuchexian,3545
652924,沙雅县,,652900,shayaxian,3545
652925,新和县,,652900,xinhexian,3545
652926,拜城县,,652900,baichengxian,3545
652927,乌什县,,652900,wushixian,3545
652928,阿瓦提县,,652900,awatixian,3545
652929,柯坪县,,652900,kepingxian,3545
652930,其它区,,652900,qitaqu,3545
653000,克孜勒苏柯尔克孜自治州,,650000,kezilesukeerkezizizhizhou,3491
653001,阿图什市,,653000,atushishi,3556
653022,阿克陶县,,653000,aketaoxian,3556
653023,阿合奇县,,653000,aheqixian,3556
653024,乌恰县,,653000,wuqiaxian,3556
653025,其它区,,653000,qitaqu,3556
653100,喀什地区,,650000,kashidiqu,3491
653101,喀什市,,653100,kashishi,3562
653121,疏附县,,653100,shufuxian,3562
653122,疏勒县,,653100,shulexian,3562
653123,英吉沙县,,653100,yingjishaxian,3562
653124,泽普县,,653100,zepuxian,3562
653125,莎车县,,653100,shachexian,3562
653126,叶城县,,653100,yechengxian,3562
653127,麦盖提县,,653100,maigaitixian,3562
653128,岳普湖县,,653100,yuepuhuxian,3562
653129,伽师县,,653100,shixian,3562
653130,巴楚县,,653100,bachuxian,3562
653131,塔什库尔干塔吉克自治县,,653100,tashikuergantajikezizhixian,3562
653132,其它区,,653100,qitaqu,3562
653200,和田地区,,650000,hetiandiqu,3491
653201,和田市,,653200,hetianshi,3576
653221,和田县,,653200,hetianxian,3576
653222,墨玉县,,653200,moyuxian,3576
653223,皮山县,,653200,pishanxian,3576
653224,洛浦县,,653200,luopuxian,3576
653225,策勒县,,653200,celexian,3576
653226,于田县,,653200,yutianxian,3576
653227,民丰县,,653200,minfengxian,3576
653228,其它区,,653200,qitaqu,3576
654000,伊犁哈萨克自治州,,650000,yilihasakezizhizhou,3491
654002,伊宁市,,654000,yiningshi,3586
654003,奎屯市,,654000,kuitunshi,3586
654021,伊宁县,,654000,yiningxian,3586
654022,察布查尔锡伯自治县,,654000,chabuchaerxibozizhixian,3586
654023,霍城县,,654000,huochengxian,3586
654024,巩留县,,654000,gongliuxian,3586
654025,新源县,,654000,xinyuanxian,3586
654026,昭苏县,,654000,zhaosuxian,3586
654027,特克斯县,,654000,tekesixian,3586
654028,尼勒克县,,654000,nilekexian,3586
654029,其它区,,654000,qitaqu,3586
654200,塔城地区,,650000,tachengdiqu,3491
654201,塔城市,,654200,tachengshi,3598
654202,乌苏市,,654200,wusushi,3598
654221,额敏县,,654200,eminxian,3598
654223,沙湾县,,654200,shawanxian,3598
654224,托里县,,654200,tuolixian,3598
654225,裕民县,,654200,yuminxian,3598
654226,和布克赛尔蒙古自治县,,654200,hebukesaiermengguzizhixian,3598
654227,其它区,,654200,qitaqu,3598
654300,阿勒泰地区,,650000,aletaidiqu,3491
654301,阿勒泰市,,654300,aletaishi,3607
654321,布尔津县,,654300,buerjinxian,3607
654322,富蕴县,,654300,fuyunxian,3607
654323,福海县,,654300,fuhaixian,3607
654324,哈巴河县,,654300,habahexian,3607
654325,青河县,,654300,qinghexian,3607
654326,吉木乃县,,654300,jimunaixian,3607
654327,其它区,,654300,qitaqu,3607
659001,石河子市,,650000,shihezishi,3491
659002,阿拉尔市,,650000,alaershi,3491
659003,图木舒克市,,650000,tumushukeshi,3491
659004,五家渠市,,650000,wujiaqushi,3491
710000,台湾省,台,0,taiwansheng,null
710100,台北市,,710000,taibeishi,3620
710101,中正区,,710100,zhongzhengqu,3621
710102,大同区,,710100,datongqu,3621
710103,中山区,,710100,zhongshanqu,3621
710104,松山区,,710100,songshanqu,3621
710105,大安区,,710100,daanqu,3621
710106,万华区,,710100,wanhuaqu,3621
710107,信义区,,710100,xinyiqu,3621
710108,士林区,,710100,shilinqu,3621
710109,北投区,,710100,beitouqu,3621
710110,内湖区,,710100,neihuqu,3621
710111,南港区,,710100,nangangqu,3621
710112,文山区,,710100,wenshanqu,3621
710113,其它区,,710100,qitaqu,3621
710200,高雄市,,710000,gaoxiongshi,3620
710201,新兴区,,710200,xinxingqu,3635
710202,前金区,,710200,qianjinqu,3635
710203,芩雅区,,710200,yaqu,3635
710204,盐埕区,,710200,yanqu,3635
710205,鼓山区,,710200,gushanqu,3635
710206,旗津区,,710200,qijinqu,3635
710207,前镇区,,710200,qianzhenqu,3635
710208,三民区,,710200,sanminqu,3635
710209,左营区,,710200,zuoyingqu,3635
710210,楠梓区,,710200,qu,3635
710211,小港区,,710200,xiaogangqu,3635
710212,其它区,,710200,qitaqu,3635
710300,台南市,,710000,tainanshi,3620
710301,中西区,,710300,zhongxiqu,3648
710302,东区,,710300,dongqu,3648
710303,南区,,710300,nanqu,3648
710304,北区,,710300,beiqu,3648
710305,安平区,,710300,anpingqu,3648
710306,安南区,,710300,annanqu,3648
710307,其它区,,710300,qitaqu,3648
710400,台中市,,710000,taizhongshi,3620
710401,中区,,710400,zhongqu,3656
710402,东区,,710400,dongqu,3656
710403,南区,,710400,nanqu,3656
710404,西区,,710400,xiqu,3656
710405,北区,,710400,beiqu,3656
710406,北屯区,,710400,beitunqu,3656
710407,西屯区,,710400,xitunqu,3656
710408,南屯区,,710400,nantunqu,3656
710409,其它区,,710400,qitaqu,3656
710500,金门县,,710000,jinmenxian,3620
710600,南投县,,710000,nantouxian,3620
710700,基隆市,,710000,jilongshi,3620
710701,仁爱区,,710700,renaiqu,3668
710702,信义区,,710700,xinyiqu,3668
710703,中正区,,710700,zhongzhengqu,3668
710704,中山区,,710700,zhongshanqu,3668
710705,安乐区,,710700,anlequ,3668
710706,暖暖区,,710700,nuannuanqu,3668
710707,七堵区,,710700,qiduqu,3668
710708,其它区,,710700,qitaqu,3668
710800,新竹市,,710000,xinzhushi,3620
710801,东区,,710800,dongqu,3677
710802,北区,,710800,beiqu,3677
710803,香山区,,710800,xiangshanqu,3677
710804,其它区,,710800,qitaqu,3677
710900,嘉义市,,710000,jiayishi,3620
710901,东区,,710900,dongqu,3682
710902,西区,,710900,xiqu,3682
710903,其它区,,710900,qitaqu,3682
711100,新北市,,710000,xinbeishi,3620
711200,宜兰县,,710000,yilanxian,3620
711300,新竹县,,710000,xinzhuxian,3620
711400,桃园县,,710000,taoyuanxian,3620
711500,苗栗县,,710000,miaolixian,3620
711700,彰化县,,710000,zhanghuaxian,3620
711900,嘉义县,,710000,jiayixian,3620
712100,云林县,,710000,yunlinxian,3620
712400,屏东县,,710000,pingdongxian,3620
712500,台东县,,710000,taidongxian,3620
712600,花莲县,,710000,hualianxian,3620
712700,澎湖县,,710000,penghuxian,3620
810000,香港特别行政区,港,0,xianggangtebiexingzhengqu,null
810100,香港岛,,810000,xianggangdao,3698
810101,中西区,,810100,zhongxiqu,3699
810102,湾仔,,810100,wanzi,3699
810103,东区,,810100,dongqu,3699
810104,南区,,810100,nanqu,3699
810200,九龙,,810000,jiulong,3698
810201,九龙城区,,810200,jiulongchengqu,3704
810202,油尖旺区,,810200,youjianwangqu,3704
810203,深水埗区,,810200,,3704
810204,黄大仙区,,810200,huangdaxianqu,3704
810205,观塘区,,810200,guantangqu,3704
810300,新界,,810000,xinjie,3698
810301,北区,,810300,beiqu,3710
810302,大埔区,,810300,dapuqu,3710
810303,沙田区,,810300,shatianqu,3710
810304,西贡区,,810300,xigongqu,3710
810305,元朗区,,810300,yuanlangqu,3710
810306,屯门区,,810300,tunmenqu,3710
810307,荃湾区,,810300,wanqu,3710
810308,葵青区,,810300,kuiqingqu,3710
810309,离岛区,,810300,lidaoqu,3710
820000,澳门特别行政区,澳,0,aomentebiexingzhengqu,null
820100,澳门半岛,,820000,aomenbandao,3720
820200,离岛,,820000,lidao,3720
310200,上海石楠路,,310000,shanghaishinanlu,null
310300,上海浦西,,310000,shanghaipuxi,null
310400,上海浦东,,310000,shanghaipudong,null
321400,邳州,,320000,pizhou,null
321500,邳州,,320000,pizhou,null
